{"type":"FeatureCollection","features":[{"type":"Feature","properties":{"ref":"NH 44","name":"North-South Corridor (Srinagar \u2013 Kanyakumari)","category":"national_highway","lanes":4},"geometry":{"type":"LineString","coordinates":[[74.7973,34.0837],[74.857,32.7266],[75.8573,30.901],[76.7794,30.7333],[76.9635,29.3909],[77.209,28.6139],[77.7064,27.4924],[78.0081,27.1767],[78.1828,26.2183],[78.57,25.4484],[78.85,24.18],[79.0882,21.1458],[79.3,19.95],[78.5,19.67],[78.0941,18.6725],[78.4867,17.385],[78.05,15.8281],[77.6,14.6819],[77.5946,12.9716],[78.15,11.6643],[77.95,10.96],[78.1198,9.9252],[77.75,8.7139],[77.5385,8.0883]]}},{"type":"Feature","properties":{"ref":"NH 48","name":"Golden Quadrilateral West (Delhi \u2013 Mumbai \u2013 Bengaluru \u2013 Chennai)","category":"national_highway","lanes":6},"geometry":{"type":"LineString","coordinates":[[77.209,28.6139],[77.0266,28.4595],[75.7873,26.9124],[74.6399,26.4499],[73.7125,24.5854],[72.5714,23.0225],[73.1812,22.3072],[72.8311,21.1702],[72.8777,19.076],[73.8567,18.5204],[74.2433,16.705],[74.4977,15.8497],[75.124,15.3647],[75.92,14.46],[77.1,13.34],[77.5946,12.9716],[78.5,12.8],[79.13,12.91],[79.7,12.83],[80.2707,13.0827]]}},{"type":"Feature","properties":{"ref":"NH 16","name":"Golden Quadrilateral East Coastal (Kolkata \u2013 Chennai)","category":"national_highway","lanes":6},"geometry":{"type":"LineString","coordinates":[[88.3639,22.5726],[87.32,22.33],[86.92,21.49],[85.8245,20.2961],[84.79,19.31],[83.9,18.3],[83.2185,17.6868],[81.78,16.98],[81.12,16.71],[80.648,16.5062],[80.4365,16.3067],[80.05,15.5],[79.9865,14.4426],[80.2707,13.0827]]}},{"type":"Feature","properties":{"ref":"NH 19","name":"Grand Trunk Road / GQ North (Delhi \u2013 Kolkata)","category":"national_highway","lanes":6},"geometry":{"type":"LineString","coordinates":[[77.209,28.6139],[77.3178,28.4089],[77.7064,27.4924],[78.0081,27.1767],[79.02,26.9],[80.3319,26.4499],[81.0,25.9],[81.8463,25.4358],[82.9739,25.3176],[84.0,24.95],[85.0,24.78],[86.4304,23.7957],[86.98,23.68],[87.86,23.23],[88.3639,22.5726]]}},{"type":"Feature","properties":{"ref":"NH 65","name":"Pune \u2013 Hyderabad \u2013 Vijayawada \u2013 Machilipatnam","category":"national_highway","lanes":4},"geometry":{"type":"LineString","coordinates":[[73.8567,18.5204],[75.9064,17.6599],[77.1,17.5],[77.5,17.6],[78.4867,17.385],[79.3,17.15],[79.62,17.05],[80.15,16.9],[80.648,16.5062],[81.13,16.18]]}},{"type":"Feature","properties":{"ref":"NH 27","name":"East-West Corridor (Porbandar \u2013 Silchar)","category":"national_highway","lanes":4},"geometry":{"type":"LineString","coordinates":[[69.6,21.64],[70.8022,22.3039],[72.5714,23.0225],[73.7125,24.5854],[75.8648,25.2138],[78.57,25.4484],[80.3319,26.4499],[80.9462,26.8467],[82.2,26.77],[83.37,26.76],[85.1376,25.5941],[87.47,25.77],[88.3,26.72],[91.7362,26.1445],[92.8,25.0]]}},{"type":"Feature","properties":{"ref":"NH 66","name":"Western Coastal Highway (Mumbai \u2013 Goa \u2013 Kochi \u2013 Kanyakumari)","category":"national_highway","lanes":4},"geometry":{"type":"LineString","coordinates":[[73.0297,19.033],[73.3,18.2],[73.35,17.5],[73.31,16.99],[73.8278,15.4909],[74.13,14.8],[74.5,14.28],[74.75,13.34],[74.856,12.9141],[75.0,12.5],[75.37,11.87],[75.7804,11.2588],[76.2673,9.9312],[76.33,9.49],[76.6,8.89],[76.9366,8.5241],[77.5385,8.0883]]}},{"type":"Feature","properties":{"ref":"AH 1","name":"Asian Highway 1 (East Asia \u2013 South Asia \u2013 Europe Corridor)","category":"international_corridor","lanes":6},"geometry":{"type":"LineString","coordinates":[[139.6917,35.6895],[129.0756,35.1796],[126.978,37.5665],[125.7543,39.0194],[123.4315,41.8057],[116.4074,39.9042],[113.6253,34.7466],[114.3054,30.5928],[113.2644,23.1291],[105.8342,21.0278],[100.5018,13.7563],[96.1951,16.8661],[90.4125,23.8103],[88.3639,22.5726],[77.209,28.6139],[74.3587,31.5204],[73.0479,33.6844],[69.1723,34.5553],[51.389,35.6892],[44.3661,33.3152],[32.8597,39.9334],[28.9784,41.0082]]}},{"type":"Feature","properties":{"ref":"E 30","name":"Trans-European Corridor (Cork \u2013 London \u2013 Berlin \u2013 Moscow)","category":"international_corridor","lanes":6},"geometry":{"type":"LineString","coordinates":[[-0.1276,51.5074],[4.3517,50.8503],[6.0839,50.7753],[9.9937,53.5511],[13.405,52.52],[16.9252,52.4064],[21.0122,52.2297],[27.5615,53.9045],[32.0453,54.7826],[37.6173,55.7558]]}},{"type":"Feature","properties":{"ref":"I-80","name":"Trans-American Interstate 80 (San Francisco \u2013 New York)","category":"international_corridor","lanes":6},"geometry":{"type":"LineString","coordinates":[[-122.4194,37.7749],[-119.8138,39.5296],[-111.891,40.7608],[-104.8202,41.14],[-95.998,41.2565],[-93.6091,41.6005],[-87.6298,41.8781],[-81.6944,41.4993],[-74.006,40.7128]]}},{"type":"Feature","properties":{"ref":"ME 1","name":"Gulf Trans-Arabian Highway (Dubai \u2013 Abu Dhabi \u2013 Riyadh \u2013 Jeddah)","category":"international_corridor","lanes":6},"geometry":{"type":"LineString","coordinates":[[55.2708,25.2048],[54.3773,24.4539],[46.6753,24.7136],[39.1925,21.4858],[39.6122,24.4672]]}}]}