{"type":"FeatureCollection","features":[{"type":"Feature","properties":{"ref":"NH 44","name":"North-South Expressway Corridor (Srinagar - Kanyakumari)","class":"motorway","title":"NH 44: North-South Expressway Corridor (Srinagar - Kanyakumari)"},"geometry":{"type":"LineString","coordinates":[[74.7973,34.0837],[74.8723,32.7266],[75.8573,30.901],[76.9635,29.3909],[77.1025,28.7041],[77.3178,28.4089],[78.0081,27.1767],[78.1828,26.2183],[78.5685,25.4484],[78.7847,23.8388],[79.0882,21.1458],[78.532,19.6641],[78.3667,18.6725],[78.4867,17.385],[78.0373,15.8281],[77.5946,14.6819],[77.5946,12.9716],[78.146,11.6643],[78.1198,9.9252],[77.5385,8.0883]]}},{"type":"Feature","properties":{"ref":"NH 48","name":"Western Golden Quadrilateral Corridor (Delhi - Mumbai - Chennai)","class":"primary","title":"NH 48: Western Golden Quadrilateral Corridor (Delhi - Mumbai - Chennai)"},"geometry":{"type":"LineString","coordinates":[[77.1025,28.7041],[76.8185,28.1487],[75.7873,26.9124],[74.6399,25.3407],[73.7125,24.5854],[72.8634,23.588],[72.5714,23.0225],[73.1812,22.3072],[72.9959,21.7051],[72.8311,21.1702],[72.8777,19.076],[73.8567,18.5204],[74.124,16.705],[74.4977,15.8497],[75.124,15.3647],[76.5414,13.9167],[77.5946,12.9716],[78.5685,12.9249],[79.1378,12.9165],[80.2707,13.0827]]}},{"type":"Feature","properties":{"ref":"NH 16","name":"Eastern Coastal Corridor (Kolkata - Chennai)","class":"primary","title":"NH 16: Eastern Coastal Corridor (Kolkata - Chennai)"},"geometry":{"type":"LineString","coordinates":[[88.3639,22.5726],[87.3215,22.3398],[86.9317,21.4934],[85.883,20.4625],[85.8245,20.2961],[85.083,19.3149],[83.9,18.295],[83.2185,17.6868],[82.2475,16.9891],[80.648,16.5062],[80.0499,15.5057],[79.9864,14.4426],[80.2707,13.0827]]}},{"type":"Feature","properties":{"ref":"NH 19","name":"Grand Trunk Northern Corridor (Delhi - Kolkata)","class":"primary","title":"NH 19: Grand Trunk Northern Corridor (Delhi - Kolkata)"},"geometry":{"type":"LineString","coordinates":[[77.1025,28.7041],[77.6737,27.4924],[78.0081,27.1767],[79.0347,26.9944],[80.3319,26.4499],[81.8463,25.4358],[82.9739,25.3176],[84.0378,24.9534],[85.5218,24.4756],[86.9842,23.6889],[87.855,23.2324],[88.3639,22.5726]]}},{"type":"Feature","properties":{"ref":"NH 27","name":"East-West Strategic Expressway (Porbandar - Siliguri - Guwahati)","class":"motorway","title":"NH 27: East-West Strategic Expressway (Porbandar - Siliguri - Guwahati)"},"geometry":{"type":"LineString","coordinates":[[69.6293,21.6417],[70.8022,22.3039],[70.5284,23.2536],[71.6053,23.8329],[73.125,24.235],[73.7125,24.5854],[75.8362,25.2138],[77.6534,25.4262],[78.5685,25.4484],[80.3319,26.4499],[80.9462,26.8467],[82.1998,26.7922],[83.3732,26.7606],[85.3996,26.1209],[87.4753,25.7771],[88.4285,26.7271],[89.9753,26.3452],[91.7362,26.1445]]}},{"type":"Feature","properties":{"ref":"NH 65","name":"Deccan Trans-Peninsular Highway (Pune - Hyderabad - Vijayawada)","class":"primary","title":"NH 65: Deccan Trans-Peninsular Highway (Pune - Hyderabad - Vijayawada)"},"geometry":{"type":"LineString","coordinates":[[73.8567,18.5204],[74.5768,18.1528],[75.9064,17.6599],[76.6268,17.8423],[77.6145,17.6823],[78.4867,17.385],[79.6239,17.1439],[80.648,16.5062],[81.1303,16.1875]]}},{"type":"Feature","properties":{"ref":"NH 66","name":"Konkan Western Coastal Corridor (Mumbai - Goa - Kochi - Kanyakumari)","class":"primary","title":"NH 66: Konkan Western Coastal Corridor (Mumbai - Goa - Kochi - Kanyakumari)"},"geometry":{"type":"LineString","coordinates":[[73.1118,18.9894],[73.5256,17.5323],[73.3,16.9902],[73.818,15.4909],[74.13,14.8136],[74.7421,13.3409],[74.856,12.9141],[75.3704,11.8745],[75.7804,11.2588],[76.2673,9.9312],[76.6029,8.8932],[76.9366,8.5241],[77.5385,8.0883]]}},{"type":"Feature","properties":{"ref":"NH 52","name":"Central Trans-India Arterial (Punjab - Rajasthan - MP - Maharashtra - Karnataka)","class":"primary","title":"NH 52: Central Trans-India Arterial (Punjab - Rajasthan - MP - Maharashtra - Karnataka)"},"geometry":{"type":"LineString","coordinates":[[75.8458,30.2458],[75.7224,29.1492],[75.7873,26.9124],[75.8362,25.2138],[75.9182,24.5973],[75.8577,22.7196],[74.7749,20.9042],[75.3433,19.8762],[75.9064,17.6599],[75.7139,16.8302],[75.124,15.3647],[74.3,14.6653]]}},{"type":"Feature","properties":{"ref":"NH 53","name":"Central Mining & Industrial Expressway (Surat - Nagpur - Paradip)","class":"motorway","title":"NH 53: Central Mining & Industrial Expressway (Surat - Nagpur - Paradip)"},"geometry":{"type":"LineString","coordinates":[[72.63,21.11],[72.8311,21.1702],[74.7749,20.9042],[75.5626,21.0077],[77.0082,20.7002],[77.7523,20.9374],[79.0882,21.1458],[79.65,21.17],[81.6296,21.2514],[83.9756,21.4669],[86.61,20.3164]]}},{"type":"Feature","properties":{"ref":"NH 163 / NH 361","name":"Central Deccan Industrial Link (Hyderabad - Warangal - Bhopal)","class":"primary","title":"NH 163 / NH 361: Central Deccan Industrial Link (Hyderabad - Warangal - Bhopal)"},"geometry":{"type":"LineString","coordinates":[[78.4867,17.385],[79.5941,17.9689],[79.61,18.78],[77.4126,23.2599]]}}]}