{"type": "FeatureCollection", "features": [{"type": "Feature", "properties": {"state": "Telangana", "country": "India", "title": "State of Telangana, India"}, "geometry": {"type": "Polygon", "coordinates": [[[79.22785186767607, 16.336811065673828], [79.21868896484403, 16.23964118957514], [79.17658233642578, 16.21713066101097], [79.13317871093756, 16.236379623413143], [79.03093719482428, 16.245742797851562], [78.92549896240246, 16.202339172363395], [78.9054565429688, 16.181869506835994], [78.92186737060553, 16.1218719482423], [78.9104766845706, 16.10522270202648], [78.88906860351574, 16.098560333251953], [78.87267303466808, 16.110170364379883], [78.86293792724621, 16.153089523315543], [78.83783721923828, 16.156738281250057], [78.83049774169928, 16.14215087890625], [78.83650207519531, 16.087377548217773], [78.80799865722662, 16.046190261840934], [78.77504730224638, 16.023609161376953], [78.71366882324219, 16.026660919189453], [78.61701202392578, 16.098909378051758], [78.55912780761747, 16.05637168884283], [78.42095184326178, 16.08284950256342], [78.34041595459001, 16.052770614624137], [78.31620788574236, 16.02915191650402], [78.25666809082031, 16.03129959106451], [78.25974273681658, 15.99473094940197], [78.23796844482422, 15.929051399230957], [78.18003082275408, 15.900449752807617], [78.16467285156278, 15.848990440368652], [78.12583160400408, 15.848931312561149], [78.12687683105474, 15.834920883178768], [78.10958099365263, 15.827180862426985], [78.06366729736345, 15.844561576843489], [78.04071807861357, 15.872200965881461], [78.03629302978527, 15.90209102630621], [78.01696777343756, 15.895149230957031], [78.00186920166033, 15.85923004150402], [77.887680053711, 15.895921707153263], [77.86694335937528, 15.892389297485408], [77.85011291503912, 15.873821258545036], [77.79918670654303, 15.865320205688704], [77.71611785888672, 15.886570930481184], [77.6589431762697, 15.876520156860352], [77.60637664794933, 15.911729812622184], [77.50945281982428, 15.920860290527287], [77.51010894775385, 16.002250671386776], [77.49072265625, 16.03063011169445], [77.50293731689459, 16.073232650756836], [77.49288940429699, 16.083770751953125], [77.50939941406267, 16.10353088378912], [77.4866714477539, 16.11576080322277], [77.48362731933611, 16.15855026245123], [77.4953231811524, 16.213001251220703], [77.5111694335938, 16.21718978881836], [77.48876190185547, 16.224349975585938], [77.48755645751964, 16.249820709228516], [77.50122833251959, 16.26781082153326], [77.53378295898438, 16.262630462646484], [77.54321289062506, 16.287059783935604], [77.5649871826173, 16.297710418701172], [77.59030151367193, 16.286851882934798], [77.59160614013689, 16.33751106262207], [77.55452728271513, 16.341560363769588], [77.51885986328153, 16.37010955810547], [77.49449157714844, 16.37578964233404], [77.43811035156256, 16.374429702758903], [77.41174316406267, 16.362680435180664], [77.3731994628908, 16.37992095947277], [77.34294891357428, 16.379720687866154], [77.28466033935541, 16.4029998779298], [77.23517608642584, 16.468080520629996], [77.29199981689459, 16.4736385345459], [77.29664611816435, 16.49147033691412], [77.32440948486334, 16.480930328369254], [77.3662872314456, 16.484109878540153], [77.37908172607416, 16.51072120666504], [77.4153213500976, 16.517829895019645], [77.41565704345732, 16.544000625610465], [77.40157318115263, 16.54677963256836], [77.39144134521513, 16.565200805664062], [77.41728973388672, 16.563909530639705], [77.43672943115251, 16.58120918273937], [77.46417236328142, 16.584209442138672], [77.45382690429716, 16.613798141479492], [77.46939086914068, 16.646911621093977], [77.43293762207037, 16.637638092041072], [77.41657257080084, 16.66281127929699], [77.4617004394533, 16.67235946655279], [77.46750640869146, 16.696800231933594], [77.46679687500028, 16.711940765380803], [77.42341613769537, 16.71453094482422], [77.43753814697271, 16.78321075439453], [77.47113800048834, 16.779130935669173], [77.4566268920899, 16.823749542236328], [77.45339965820318, 16.909032821655273], [77.46774291992216, 16.91711044311529], [77.4640731811524, 16.952690124511832], [77.47918701171903, 16.968032836914062], [77.47837066650396, 16.99024963378912], [77.49938964843778, 17.00732040405279], [77.47692108154291, 17.076232910156307], [77.46031188964872, 17.092840194702262], [77.48168945312494, 17.130451202392578], [77.46263885498047, 17.104070663452205], [77.3763275146485, 17.137889862060547], [77.35999298095732, 17.16162109375], [77.3707504272461, 17.19007110595703], [77.39148712158203, 17.19236946105957], [77.39881134033209, 17.208778381347656], [77.38035583496105, 17.219770431518555], [77.40545654296892, 17.23740959167492], [77.41493988037104, 17.22987937927246], [77.42257690429688, 17.25325012207054], [77.45450592041021, 17.27589035034191], [77.45279693603521, 17.286630630493164], [77.43402099609375, 17.288259506225586], [77.45510101318365, 17.337909698486442], [77.45159912109392, 17.37049102783203], [77.47931671142584, 17.36961174011242], [77.472412109375, 17.363178253173828], [77.48261260986357, 17.3544597625733], [77.52081298828125, 17.362051010131836], [77.5301818847658, 17.377880096435604], [77.52133178710966, 17.386331558227482], [77.53550720214861, 17.40410041809082], [77.51068878173822, 17.412540435791016], [77.51014709472673, 17.42725944519043], [77.53347015380865, 17.440950393676758], [77.57256317138678, 17.42951965332037], [77.57319641113293, 17.454200744628906], [77.61061096191435, 17.444232940673828], [77.6109466552735, 17.469940185546932], [77.64042663574236, 17.476011276245174], [77.6527633666995, 17.503250122070312], [77.64808654785162, 17.481178283691634], [77.68401336669933, 17.472850799560547], [77.68631744384794, 17.524299621582088], [77.68325042724621, 17.50402069091797], [77.6566162109375, 17.521339416503906], [77.5917282104495, 17.532680511474553], [77.58982849121122, 17.562759399414062], [77.54839324951183, 17.549459457397575], [77.52742004394543, 17.573221206665153], [77.50161743164068, 17.54088020324707], [77.48999786376959, 17.566270828247127], [77.43992614746088, 17.581470489502067], [77.45321655273449, 17.630769729614485], [77.4450073242188, 17.64842033386236], [77.45034790039068, 17.691299438476562], [77.4942779541015, 17.716039657592773], [77.53936004638672, 17.725421905517805], [77.56202697753923, 17.747110366821516], [77.56595611572294, 17.764110565185604], [77.50448608398443, 17.78259086608881], [77.5108795166015, 17.801441192626953], [77.52607727050793, 17.81168937683111], [77.52600097656267, 17.826818466186637], [77.54973602294933, 17.818029403686637], [77.57274627685553, 17.872810363769645], [77.59668731689482, 17.8704509735108], [77.5851669311524, 17.908229827880803], [77.61657714843767, 17.90286827087408], [77.62374114990246, 17.957750320434684], [77.62972259521484, 17.96297073364252], [77.64398956298857, 17.946371078491325], [77.65339660644548, 17.969352722167912], [77.643608093262, 17.973449707031307], [77.6461791992188, 17.993200302124023], [77.62879943847673, 17.992519378662223], [77.60666656494158, 18.01801109313965], [77.5922470092774, 18.010168075561523], [77.58496856689459, 18.024789810180664], [77.55311584472662, 18.034669876098633], [77.54574584960966, 18.053760528564396], [77.56733703613276, 18.076290130615234], [77.59745788574247, 18.084289550781477], [77.60056304931658, 18.09939956665039], [77.59777069091803, 18.15184020996105], [77.57936096191406, 18.162120819091797], [77.56431579589861, 18.189979553222713], [77.58496093750006, 18.21674156188965], [77.57253265380876, 18.24056053161621], [77.5990295410158, 18.2729110717774], [77.59784698486322, 18.281219482421818], [77.54995727539091, 18.2913494110108], [77.57022857666033, 18.308179855346737], [77.56691741943388, 18.317949295043945], [77.51950073242205, 18.34925270080572], [77.52140045166033, 18.364650726318303], [77.549301147461, 18.38771820068365], [77.55520629882818, 18.417852401733455], [77.5259399414062, 18.42735099792486], [77.52848052978533, 18.440481185913086], [77.56017303466803, 18.43504905700695], [77.58521270751964, 18.445449829101562], [77.54619598388689, 18.463382720947322], [77.57063293457048, 18.466859817504883], [77.57652282714861, 18.483779907226506], [77.60106658935575, 18.474210739135742], [77.60283660888689, 18.491380691528377], [77.58627319335955, 18.502920150756893], [77.60144805908232, 18.521949768066406], [77.59329223632812, 18.523141860961914], [77.59726715087919, 18.54754066467285], [77.6488113403322, 18.552619934081974], [77.64528656005871, 18.536300659179744], [77.6575698852539, 18.527200698852596], [77.71235656738281, 18.554439544677678], [77.7365112304687, 18.554809570312557], [77.7480926513673, 18.60531044006342], [77.72811126709013, 18.66420936584484], [77.75762939453136, 18.707090377807617], [77.78643798828136, 18.684120178222713], [77.83746337890642, 18.807460784912337], [77.90759277343778, 18.82951927185053], [77.94255065917986, 18.822290420532454], [77.94413757324224, 18.842290878296012], [77.9296493530274, 18.84649085998541], [77.92533874511713, 18.859210968017692], [77.89920043945341, 18.86792755126953], [77.881576538086, 18.908531188964787], [77.84049987792986, 18.911300659179744], [77.85372924804693, 18.95227813720703], [77.81269073486334, 18.949459075927678], [77.81713867187511, 18.982370376587028], [77.76735687255871, 18.981420516967773], [77.75955963134794, 19.05930137634283], [77.79718017578125, 19.05130958557129], [77.8057632446289, 19.10334014892578], [77.82861328125028, 19.084941864013672], [77.84813690185564, 19.090080261230582], [77.83109283447294, 19.135652542114315], [77.85839080810541, 19.180772781372013], [77.84654998779325, 19.196979522705192], [77.86738586425798, 19.255260467529297], [77.90039062500017, 19.256120681762695], [77.90570831298828, 19.26721954345726], [77.90067291259771, 19.277128219604606], [77.8619232177735, 19.28409957885765], [77.8608779907226, 19.302129745483512], [77.89325714111357, 19.3211612701416], [77.91227722167974, 19.31795120239252], [77.94062805175798, 19.34250068664545], [78.01824951171875, 19.296327590942496], [78.04574584960955, 19.27086067199707], [78.0511322021485, 19.241760253906193], [78.08225250244146, 19.254770278930607], [78.12670898437511, 19.24640274047863], [78.1497421264649, 19.23005104064947], [78.18331909179693, 19.241540908813533], [78.19715118408203, 19.331729888916016], [78.17959594726557, 19.353010177612532], [78.18216705322271, 19.411769866943473], [78.19811248779297, 19.407449722290096], [78.22426605224626, 19.434032440185604], [78.25199890136724, 19.430049896240348], [78.27321624755888, 19.453840255737305], [78.29733276367205, 19.448829650878963], [78.31195831298822, 19.465900421142635], [78.29502868652361, 19.537281036377067], [78.27910614013683, 19.558200836181697], [78.31114959716808, 19.57176971435547], [78.3109893798831, 19.60417938232422], [78.28755950927734, 19.654460906982422], [78.26972198486334, 19.66312980651861], [78.28581237792997, 19.689670562744254], [78.31606292724615, 19.690551757812443], [78.3452758789063, 19.713569641113338], [78.34541320800787, 19.734422683715934], [78.36080169677734, 19.753980636596793], [78.36699676513678, 19.794540405273438], [78.33921051025419, 19.81351089477539], [78.33899688720714, 19.83917999267578], [78.2941284179688, 19.849550247192383], [78.31019592285168, 19.91274070739746], [78.3351058959961, 19.910110473632812], [78.32296752929699, 19.894971847534123], [78.33625030517578, 19.883190155029354], [78.38414764404303, 19.879222869873104], [78.39765930175798, 19.836402893066463], [78.47618865966791, 19.81636047363287], [78.49391937255854, 19.793149948120117], [78.52626800537115, 19.82165908813488], [78.60365295410173, 19.817501068115234], [78.69590759277338, 19.78971099853527], [78.71644592285162, 19.766799926757926], [78.73834991455084, 19.779430389404354], [78.77321624755876, 19.779371261596793], [78.80760955810553, 19.75798988342285], [78.83830261230474, 19.76208114624046], [78.85691833496111, 19.731300354003963], [78.8588027954101, 19.656311035156307], [78.89097595214855, 19.655260086059684], [78.91590881347662, 19.667730331420955], [78.95419311523455, 19.663410186767578], [78.9689559936524, 19.649232864379883], [78.96286010742193, 19.61732292175293], [78.98052978515642, 19.585081100463867], [78.94956207275419, 19.5574703216555], [78.95455169677729, 19.551830291748047], [78.9784774780274, 19.550922393798885], [78.99285888671903, 19.56204032897955], [79.01835632324224, 19.539970397949446], [79.05152130126959, 19.545272827148438], [79.06339263916021, 19.531250000000114], [79.1028671264649, 19.527950286865178], [79.10473632812506, 19.5127410888673], [79.14026641845714, 19.501110076904297], [79.17778778076178, 19.460691452026367], [79.22293853759783, 19.46779060363781], [79.20684814453153, 19.49167060852045], [79.23663330078153, 19.52679824829096], [79.2501068115235, 19.57768058776861], [79.23770141601568, 19.599540710449332], [79.24386596679716, 19.612552642822493], [79.30484008789068, 19.590150833129883], [79.314262390137, 19.565521240234432], [79.36902618408203, 19.57123184204113], [79.41361236572294, 19.533479690551758], [79.44126129150419, 19.53351020812994], [79.4704208374024, 19.49745178222662], [79.51339721679682, 19.51806068420416], [79.5149917602539, 19.541950225830135], [79.54265594482428, 19.54852294921875], [79.55249786376947, 19.520042419433537], [79.59805297851591, 19.503770828247127], [79.61580657959013, 19.55862998962408], [79.63971710205095, 19.57500076293951], [79.71292877197266, 19.583330154419002], [79.74032592773449, 19.60313987731928], [79.78542327880876, 19.5935897827149], [79.81659698486334, 19.569009780884016], [79.82821655273443, 19.537010192871037], [79.87021636962902, 19.50496101379406], [79.91102600097668, 19.49234008789074], [79.94020843505871, 19.464509963989315], [79.97305297851591, 19.401020050049055], [79.95715332031256, 19.334569931030387], [79.96177673339872, 19.297491073608455], [79.94518280029325, 19.284120559692496], [79.92016601562506, 19.226409912109602], [79.94320678710943, 19.170600891113224], [79.85804748535185, 19.104110717773438], [79.85958862304682, 19.034629821777344], [79.91610717773438, 19.047359466552734], [79.93306732177751, 19.029689788818416], [79.9413528442384, 18.915769577026367], [79.93332672119146, 18.845041275024528], [79.8922780207005, 18.830935159576697], [79.89401245117193, 18.830839157104606], [79.9319915771485, 18.784429550171126], [80.01235198974638, 18.766759872436637], [80.04635620117205, 18.720920562744254], [80.10655975341825, 18.67752838134777], [80.15808105468744, 18.695940017700195], [80.17096710205084, 18.677339553833065], [80.18895721435575, 18.67558097839367], [80.20191192626982, 18.69744110107422], [80.2466659545899, 18.70132064819336], [80.26753997802763, 18.71796989440918], [80.2963104248048, 18.685640335083008], [80.33667755126953, 18.590520858764762], [80.27094281095832, 18.584433127605763], [80.34184265136724, 18.586441040039062], [80.36695098876953, 18.604650497436467], [80.38156127929693, 18.593599319458235], [80.45020294189459, 18.62635040283226], [80.48838806152355, 18.62672042846674], [80.63268280029314, 18.518840789794922], [80.65077972412126, 18.47228050231928], [80.69889068603521, 18.436000823974553], [80.69100952148438, 18.419349670410156], [80.7265396118164, 18.40899085998541], [80.71626281738287, 18.382940292358455], [80.74462127685564, 18.30218124389654], [80.78827667236322, 18.24978065490717], [80.73326873779303, 18.218790054321346], [80.7345581054688, 18.17171287536621], [80.79792785644537, 18.16629981994629], [80.81791687011724, 18.187120437622127], [80.81719207763678, 18.225210189819393], [80.82958984375006, 18.23411941528326], [80.85910034179688, 18.226001739501896], [80.86749267578125, 18.207258224487532], [80.84819793701189, 18.197650909423885], [80.8620223999024, 18.132669448852482], [80.90072631835943, 18.13467025756836], [80.95419311523466, 18.16698074340826], [80.97367858886719, 18.168149948120174], [80.97263336181646, 18.143550872802848], [80.94935607910162, 18.12318038940424], [80.94399261474615, 18.081020355224723], [80.96595764160162, 18.04346847534174], [81.0043487548831, 17.838348388671875], [81.03765106201178, 17.78623962402355], [81.07360076904325, 17.78629112243658], [81.08908843994158, 17.810871124267805], [81.15956878662115, 17.852630615234318], [81.19196319580084, 17.847101211547965], [81.26336669921903, 17.81046295166027], [81.40925598144543, 17.80483818054205], [81.41941833496088, 17.82059860229515], [81.46684265136724, 17.82492065429699], [81.48583984375017, 17.80261039733881], [81.56874084472685, 17.827880859375], [81.61115264892595, 17.81536293029785], [81.64279174804705, 17.839281082153434], [81.66306304931646, 17.876930236816463], [81.68828582763678, 17.88479995727539], [81.7031707763673, 17.861129760742415], [81.75829315185558, 17.893360137939396], [81.79440307617182, 17.844150543212834], [81.75293731689459, 17.818309783935774], [81.72342681884794, 17.815221786499023], [81.68477630615251, 17.770561218261832], [81.62306213378918, 17.762790679931697], [81.57662200927751, 17.726091384887695], [81.57116699218756, 17.687868118286246], [81.50292968750028, 17.58987998962408], [81.52371978759794, 17.569709777832088], [81.49946594238293, 17.531539916992415], [81.49341583251947, 17.448820114135742], [81.43364715576178, 17.37494277954096], [81.38522338867199, 17.355131149292106], [81.32469940185553, 17.390649795532283], [81.2671661376956, 17.319999694824276], [81.18154144287138, 17.32222938537609], [81.1706161499024, 17.29646110534668], [81.18055725097668, 17.2546005249024], [81.16278839111334, 17.23258018493658], [81.06221008300798, 17.204099655151367], [81.04654693603516, 17.213817596435547], [81.02617645263689, 17.18666839599615], [80.98516082763689, 17.17938995361328], [80.930648803711, 17.205030441284123], [80.9053497314456, 17.20129013061529], [80.91330718994146, 17.145950317382756], [80.87030792236328, 17.146301269531364], [80.85504913330078, 17.11141014099121], [80.86421203613298, 17.09581756591797], [80.85884857177729, 17.050851821899414], [80.8324661254884, 17.02571105957054], [80.82322692871111, 17.037780761718864], [80.7257308959961, 17.064609527587834], [80.68399810791033, 17.068740844726562], [80.63960266113287, 17.05512046813959], [80.63775634765653, 17.071939468383846], [80.65664672851591, 17.08776283264166], [80.62523651123064, 17.101739883422965], [80.62975311279325, 17.11001968383789], [80.56017303466797, 17.1380290985108], [80.51941680908209, 17.108150482177734], [80.49611663818376, 17.10786056518566], [80.48220062255876, 17.050270080566406], [80.45288848876959, 17.037042617797965], [80.4462432861331, 17.017021179199162], [80.42053985595697, 17.024860382080135], [80.39508819580084, 17.077568054199276], [80.37416076660185, 17.063110351562557], [80.36775207519548, 17.05269813537609], [80.38790893554716, 17.007299423217773], [80.35824584960943, 16.970630645751953], [80.44254302978521, 16.944940567016715], [80.48781585693371, 16.91744041442871], [80.49130249023432, 16.94818115234375], [80.52069091796875, 16.936399459839095], [80.53173828124994, 16.95017814636242], [80.58419036865229, 16.926519393921012], [80.58674621582037, 16.87393951416027], [80.5649719238283, 16.869039535522518], [80.55458068847685, 16.824789047241268], [80.60410308837896, 16.787759780883903], [80.56281280517607, 16.762830734253157], [80.45639801025385, 16.790029525756836], [80.45260620117205, 16.81529045104986], [80.399711608887, 16.849739074706974], [80.39914703369169, 16.83158111572277], [80.37293243408209, 16.81110000610363], [80.358627319336, 16.854909896850586], [80.33495330810564, 16.855739593505973], [80.33731079101568, 16.867080688476676], [80.31922149658232, 16.870941162109375], [80.31537628173834, 16.91238975524908], [80.28898620605486, 16.97680282592779], [80.26217651367199, 17.010629653930664], [80.2357482910158, 17.002330780029354], [80.21784210205095, 17.019620895385856], [80.20125579833984, 17.013139724731502], [80.19426727294933, 17.042512893676815], [80.18212890625, 17.044940948486442], [80.13385772705072, 16.985359191894474], [80.08769226074247, 16.98744010925293], [80.08423614501982, 16.96319007873558], [80.04588317871105, 16.965299606323242], [80.04680204761783, 16.978926605581595], [80.03705596923834, 16.936470031738338], [80.0095520019533, 16.907260894775334], [79.99167633056646, 16.86325073242199], [80.03309631347668, 16.85244941711437], [80.04183959960943, 16.826061248779297], [80.06967163085943, 16.813608169555664], [80.04789733886736, 16.74515151977539], [79.99151611328136, 16.6925506591798], [79.95815277099638, 16.64204978942871], [79.92366790771479, 16.63073921203636], [79.90207672119169, 16.63784980773937], [79.86183929443388, 16.69822120666504], [79.81025695800787, 16.690490722656193], [79.77490234374994, 16.729520797729606], [79.7227401733399, 16.69260978698736], [79.66864013671903, 16.68400955200218], [79.64803314209013, 16.662000656128043], [79.59990692138678, 16.663270950317383], [79.55399322509794, 16.634590148925724], [79.49717712402372, 16.630510330200195], [79.45059204101574, 16.609149932861328], [79.4265899658206, 16.582521438598746], [79.33333587646513, 16.578521728515568], [79.26611328125006, 16.561470031738338], [79.22527313232428, 16.508220672607536], [79.23618316650396, 16.458539962768555], [79.21906280517607, 16.438169479370174], [79.21147155761713, 16.36281013488781], [79.22785186767607, 16.336811065673828]], [[78.78851599862112, 16.7679218886127], [78.79035949707048, 16.773668289184684], [78.79759216308594, 16.817369461059513], [78.78851599862112, 16.7679218886127]], [[78.77913866524754, 16.745890101901534], [78.78189086914091, 16.747270584106502], [78.783086356466, 16.750997058110908], [78.77913866524754, 16.745890101901534]], [[78.75595092773466, 16.739110946655273], [78.75522615809504, 16.733895790477195], [78.76808159720308, 16.740343970050123], [78.75595092773466, 16.739110946655273]], [[77.70491790771484, 18.25868034362793], [77.7208099365235, 18.258300781250114], [77.68636322021484, 18.259960174560547], [77.70491790771484, 18.25868034362793]], [[78.11264801025385, 18.07657051086437], [78.10881042480497, 18.095251083374023], [78.10566837212433, 18.09175450428844], [78.11264801025385, 18.07657051086437]], [[78.1649169921875, 18.09874153137207], [78.16513191317028, 18.10428174701012], [78.13617706298834, 18.073749542236442], [78.1649169921875, 18.09874153137207]], [[78.48957893230748, 18.159784113167518], [78.48398590087919, 18.154420852661076], [78.48757694920788, 18.146487687072085], [78.48957893230748, 18.159784113167518]], [[78.5629425048831, 18.185089111328068], [78.49865722656278, 18.16848945617687], [78.4929471994814, 18.163014006391023], [78.5629425048831, 18.185089111328068]], [[78.56310272216808, 18.22673988342285], [78.57205963134771, 18.2216415405274], [78.55116271972656, 18.25797080993658], [78.5171661376956, 18.282070159912053], [78.55468750000006, 18.251260757446403], [78.5629425048831, 18.185089111328068], [78.56310272216808, 18.22673988342285]], [[78.64906399301478, 18.246021440202178], [78.64498138427729, 18.24772071838379], [78.59693145751953, 18.246791839599553], [78.64906399301478, 18.246021440202178]], [[78.92760739250602, 18.250350357884216], [78.91078948974615, 18.249910354614315], [78.89180755615234, 18.235651016235465], [78.92760739250602, 18.250350357884216]], [[78.95491106033188, 18.249748919383194], [78.95475006103516, 18.251060485839957], [78.94967669027876, 18.25092775230272], [78.95491106033188, 18.249748919383194]], [[79.10862009844483, 18.027632016716097], [79.11458587646484, 18.029760360717887], [79.1060562133789, 18.049039840698185], [79.10862009844483, 18.027632016716097]], [[79.08177963360806, 18.018046645209196], [79.14235687255865, 17.99966049194336], [79.09248258636637, 18.019798274794795], [79.08177963360806, 18.018046645209196]], [[78.83418542385702, 17.894134289196604], [78.84571838378912, 17.901020050048828], [78.87477874755888, 17.959390640258846], [78.83418542385702, 17.894134289196604]], [[78.82232666015653, 17.87507057189947], [78.82473270456613, 17.87438063101647], [78.8254187872605, 17.880041362990823], [78.82232666015653, 17.87507057189947]], [[78.86547221159528, 17.804422337424487], [78.88191986084001, 17.80000114440918], [78.98227691650396, 17.784189224243278], [78.86551435715879, 17.80461349562676], [78.86547221159528, 17.804422337424487]], [[78.68165588378923, 17.573770523071403], [78.69069671630865, 17.58473968505865], [78.68715490828647, 17.58887792211327], [78.68165588378923, 17.573770523071403]], [[78.75142690912483, 17.270214494720175], [78.7548599243164, 17.27483940124506], [78.74096679687517, 17.292079925537166], [78.75142690912483, 17.270214494720175]], [[78.7565231323245, 17.25956153869629], [78.820541381836, 17.231479644775504], [78.75405038762594, 17.264730472532175], [78.7565231323245, 17.25956153869629]], [[78.71127319335943, 16.963239669799805], [78.70043945312511, 16.95728111267084], [78.74822998046892, 16.960861206054915], [78.75011344112559, 16.965849281141757], [78.71127319335943, 16.963239669799805]], [[78.68058776855474, 16.925519943237532], [78.74369049072271, 16.90450096130371], [78.69513702392607, 16.927761077881087], [78.68058776855474, 16.925519943237532]], [[78.67689791840186, 17.686260345135306], [78.71399688720732, 17.662620544433707], [78.69741821289091, 17.680231094360465], [78.67689791840186, 17.686260345135306]], [[78.39018249511719, 17.669269561767578], [78.38781165591244, 17.662296934274167], [78.41471099853527, 17.66588973999029], [78.39018249511719, 17.669269561767578]], [[78.49610900878912, 17.680120468139762], [78.44525909423857, 17.708641052246094], [78.45922088623047, 17.69767951965332], [78.49610900878912, 17.680120468139762]], [[78.65798187255876, 17.6918182373048], [78.65178346050476, 17.681612373932843], [78.66592674639124, 17.689483883051942], [78.65798187255876, 17.6918182373048]], [[77.81656646728527, 16.860849380493107], [77.83661651611357, 16.85262107849121], [77.84368518846233, 16.853077415513518], [77.81656646728527, 16.860849380493107]], [[77.85770485162294, 16.85398249231221], [77.86150553262058, 16.854227855424778], [77.86193084716803, 16.857810974121094], [77.85770485162294, 16.85398249231221]], [[77.93535614013678, 17.01951980590826], [77.98622135843311, 16.98865059043224], [77.97405242919928, 17.004180908203182], [77.93368087309813, 17.023262154085742], [77.93535614013678, 17.01951980590826]], [[78.02279663085966, 17.16887283325201], [78.0579315157489, 17.191741174788483], [78.05027770996088, 17.191949844360465], [78.02279663085966, 17.16887283325201]], [[78.27367883060208, 17.220504651087662], [78.2806881644865, 17.220256441973227], [78.276870727539, 17.224002838134822], [78.27367883060208, 17.220504651087662]], [[78.29063576913711, 17.21049395777436], [78.30422973632818, 17.14191246032709], [78.29316711425787, 17.208009719848633], [78.29063576913711, 17.21049395777436]], [[77.75395232190924, 17.21932247415104], [77.75714874267595, 17.218130111694393], [77.77085876464844, 17.233221054077262], [77.75395232190924, 17.21932247415104]], [[77.78478930571788, 17.222886656387605], [77.7886581420899, 17.22705078125], [77.77085876464844, 17.233221054077262], [77.78478930571788, 17.222886656387605]], [[78.38687133789074, 17.408149719238338], [78.41002965656952, 17.425652231447735], [78.40582275390625, 17.429189682006836], [78.38687133789074, 17.408149719238338]], [[78.38553619384777, 17.384510040283203], [78.39552307128906, 17.35243988037132], [78.38687133789074, 17.408149719238338], [78.38553619384777, 17.384510040283203]], [[78.51625061035156, 17.39467048645031], [78.51979451693634, 17.38078425417442], [78.53431701660185, 17.458469390869084], [78.51625061035156, 17.39467048645031]], [[78.50580596923828, 17.450159072876033], [78.50769068296765, 17.450708423807175], [78.4854583740235, 17.471788406372013], [78.50580596923828, 17.450159072876033]], [[78.44790462352768, 17.430870390540946], [78.47299957275408, 17.46898078918457], [78.44798278808611, 17.43153953552269], [78.44790462352768, 17.430870390540946]], [[78.2831916109068, 18.9437749010806], [78.26040649414074, 18.990320205688704], [78.27684020996122, 18.943479537963924], [78.2831916109068, 18.9437749010806]], [[78.38858032226574, 18.990148544311523], [78.29177801631197, 18.944174199988552], [78.2989883422851, 18.9445095062257], [78.38858032226574, 18.990148544311523]], [[78.49384307861334, 18.9636611938476], [78.4383392333985, 18.958570480346907], [78.501980333842, 18.958503615265066], [78.49384307861334, 18.9636611938476]], [[78.54577636718778, 18.443540573120117], [78.52225593449951, 18.47323393718331], [78.51918792724615, 18.467609405517692], [78.54577636718778, 18.443540573120117]], [[79.38110342852966, 17.49820904879884], [79.31140136718778, 17.52407073974615], [79.37664031982416, 17.499250411987532], [79.38110342852966, 17.49820904879884]], [[79.41458892822294, 17.51029014587408], [79.39141736712291, 17.495802529780338], [79.39631652832048, 17.494659423828125], [79.41458892822294, 17.51029014587408]], [[80.08215332031278, 17.507392883300724], [80.08459515598011, 17.505351024635814], [80.08096733194641, 17.512400389736467], [80.08215332031278, 17.507392883300724]], [[80.07219696044933, 17.54943084716797], [80.07682097773011, 17.52990721864944], [80.07936859130876, 17.569351196289176], [80.07219696044933, 17.54943084716797]], [[80.03866577148466, 17.700902938842887], [80.03678894042969, 17.691160202026424], [80.04089297531924, 17.701532577758538], [80.03866577148466, 17.700902938842887]], [[80.08979447111989, 17.715357214871517], [80.05928351793686, 17.70673165344808], [80.06858825683622, 17.70528030395502], [80.08979447111989, 17.715357214871517]], [[80.24328366257105, 17.73383837769603], [80.23097991943376, 17.745941162109432], [80.237808227539, 17.730329513549748], [80.24328366257105, 17.73383837769603]], [[80.24824561228081, 17.745114794495812], [80.24444453886753, 17.73458231077005], [80.2484664916995, 17.737159729003963], [80.24824561228081, 17.745114794495812]], [[80.62045288085955, 18.1290607452392], [80.61898803710943, 18.121210098266715], [80.62206175347634, 18.12900582300953], [80.62045288085955, 18.1290607452392]], [[80.65424150496489, 18.16068278791909], [80.64256286621094, 18.148660659790153], [80.6532363891601, 18.149700164794865], [80.65424150496489, 18.16068278791909]], [[80.53044128417986, 18.255590438842887], [80.65487939102735, 18.1676527929542], [80.65500640869158, 18.169040679931697], [80.53044128417986, 18.255590438842887]], [[80.44915816503898, 18.44686236428097], [80.4547807464912, 18.44381842418048], [80.45501708984403, 18.44614028930664], [80.44915816503898, 18.44686236428097]], [[80.38832855224626, 18.455978393554688], [80.3929270718912, 18.455912400954695], [80.37355041503912, 18.4685897827149], [80.38832855224626, 18.455978393554688]], [[79.80716705322283, 17.280509948730526], [79.81822967529314, 17.269880294799748], [79.79989822687305, 17.294045628497916], [79.80716705322283, 17.280509948730526]], [[79.8838814784973, 17.25135289788836], [79.88288879394548, 17.256401062011662], [79.87633005852346, 17.25776833585318], [79.8838814784973, 17.25135289788836]], [[79.94284994506525, 17.11913384575873], [79.93924713134771, 17.12330818176264], [79.90563964843756, 17.128799438476506], [79.94284994506525, 17.11913384575873]], [[80.04922418437638, 17.01484735071614], [80.04952239990263, 17.019269943237248], [80.03063991173846, 17.033386268801493], [80.04922418437638, 17.01484735071614]], [[80.22202301025408, 18.547910690307845], [80.26355276513343, 18.583748731318174], [80.26197814941418, 18.583602905273494], [80.22202301025408, 18.547910690307845]]]}}]}