{"type": "FeatureCollection", "features": [{"type": "Feature", "properties": {"district": "Adilabad", "state": "Telangana", "title": "Adilabad District, Telangana"}, "geometry": {"type": "Polygon", "coordinates": [[[78.33625030517578, 19.883190155029354], [78.38414764404303, 19.879222869873104], [78.39765930175798, 19.836402893066463], [78.47618865966791, 19.81636047363287], [78.49391937255854, 19.793149948120117], [78.52626800537115, 19.82165908813488], [78.60365295410173, 19.817501068115234], [78.69590759277338, 19.78971099853527], [78.71644592285162, 19.766799926757926], [78.73834991455084, 19.779430389404354], [78.77321624755876, 19.779371261596793], [78.80760955810553, 19.75798988342285], [78.83830261230474, 19.76208114624046], [78.85691833496111, 19.731300354003963], [78.8588027954101, 19.656311035156307], [78.89097595214855, 19.655260086059684], [78.91590881347662, 19.667730331420955], [78.95419311523455, 19.663410186767578], [78.9689559936524, 19.649232864379883], [78.96286010742193, 19.61732292175293], [78.98052978515642, 19.585081100463867], [78.94956207275419, 19.5574703216555], [78.95455169677729, 19.551830291748047], [78.9784774780274, 19.550922393798885], [78.99285888671903, 19.56204032897955], [79.01835632324224, 19.539970397949446], [79.05152130126959, 19.545272827148438], [79.06339263916021, 19.531250000000114], [79.1028671264649, 19.527950286865178], [79.10473632812506, 19.5127410888673], [79.14026641845714, 19.501110076904297], [79.17778778076178, 19.460691452026367], [79.22293853759783, 19.46779060363781], [79.20684814453153, 19.49167060852045], [79.23663330078153, 19.52679824829096], [79.2501068115235, 19.57768058776861], [79.23770141601568, 19.599540710449332], [79.24386596679716, 19.612552642822493], [79.30484008789068, 19.590150833129883], [79.314262390137, 19.565521240234432], [79.36902618408203, 19.57123184204113], [79.41361236572294, 19.533479690551758], [79.44126129150419, 19.53351020812994], [79.4704208374024, 19.49745178222662], [79.51339721679682, 19.51806068420416], [79.5149917602539, 19.541950225830135], [79.54265594482428, 19.54852294921875], [79.55249786376947, 19.520042419433537], [79.59805297851591, 19.503770828247127], [79.61580657959013, 19.55862998962408], [79.63971710205095, 19.57500076293951], [79.71292877197266, 19.583330154419002], [79.74032592773449, 19.60313987731928], [79.78542327880876, 19.5935897827149], [79.81659698486334, 19.569009780884016], [79.82821655273443, 19.537010192871037], [79.87021636962902, 19.50496101379406], [79.91102600097668, 19.49234008789074], [79.94020843505871, 19.464509963989315], [79.97305297851591, 19.401020050049055], [79.95715332031256, 19.334569931030387], [79.96177673339872, 19.297491073608455], [79.94518280029325, 19.284120559692496], [79.92016601562506, 19.226409912109602], [79.94320678710943, 19.170600891113224], [79.85804748535185, 19.104110717773438], [79.85958862304682, 19.034629821777344], [79.91610717773438, 19.047359466552734], [79.93306732177751, 19.029689788818416], [79.9413528442384, 18.915769577026367], [79.93332672119146, 18.845041275024528], [79.8841171264649, 18.828130722045955], [79.86293029785162, 18.832559585571346], [79.8549194335938, 18.868379592895508], [79.8413925170899, 18.878759384155273], [79.82408905029325, 18.836931228637695], [79.84703826904314, 18.79743957519554], [79.80338287353516, 18.722179412841854], [79.75576782226574, 18.691768646240178], [79.68419647216803, 18.68030166625988], [79.64878082275419, 18.727119445800895], [79.56304168701189, 18.77851104736328], [79.51271820068365, 18.78959083557129], [79.44348144531256, 18.84950256347662], [79.4061813354495, 18.8666610717774], [79.38278198242205, 18.868061065673828], [79.3553466796875, 18.829950332641715], [79.3133316040039, 18.819900512695312], [79.28131866455095, 18.82916831970215], [79.2384872436524, 18.87000846862793], [79.18515014648432, 18.87331962585455], [79.10571289062506, 18.951240539550895], [79.06395721435553, 19.031869888305664], [78.97046661376959, 19.07106971740734], [78.93917846679693, 19.064661026000977], [78.89682769775396, 19.02865982055664], [78.83043670654314, 19.056110382080078], [78.75388336181669, 19.01214981079113], [78.68181610107422, 19.025350570678768], [78.6311264038086, 18.978940963745117], [78.57711029052751, 18.985029220581055], [78.52864837646484, 18.94160079956066], [78.49384307861334, 18.9636611938476], [78.4383392333985, 18.958570480346907], [78.38858032226574, 18.990148544311523], [78.28465270996122, 18.940790176391715], [78.26040649414074, 18.990320205688704], [78.23287200927734, 19.002630233764876], [78.2019882202149, 18.998390197753906], [78.06909942626964, 18.935440063476506], [78.04722595214838, 18.91807937622093], [78.02480316162115, 18.87638282775879], [77.96842193603544, 18.87531089782709], [77.94413757324224, 18.842290878296012], [77.9296493530274, 18.84649085998541], [77.92533874511713, 18.859210968017692], [77.89920043945341, 18.86792755126953], [77.881576538086, 18.908531188964787], [77.84049987792986, 18.911300659179744], [77.85372924804693, 18.95227813720703], [77.81269073486334, 18.949459075927678], [77.81713867187511, 18.982370376587028], [77.76735687255871, 18.981420516967773], [77.75955963134794, 19.05930137634283], [77.79718017578125, 19.05130958557129], [77.8057632446289, 19.10334014892578], [77.82861328125028, 19.084941864013672], [77.84813690185564, 19.090080261230582], [77.83109283447294, 19.135652542114315], [77.85839080810541, 19.180772781372013], [77.84654998779325, 19.196979522705192], [77.86738586425798, 19.255260467529297], [77.90039062500017, 19.256120681762695], [77.90570831298828, 19.26721954345726], [77.90067291259771, 19.277128219604606], [77.8619232177735, 19.28409957885765], [77.8608779907226, 19.302129745483512], [77.89325714111357, 19.3211612701416], [77.91227722167974, 19.31795120239252], [77.94062805175798, 19.34250068664545], [78.01824951171875, 19.296327590942496], [78.04574584960955, 19.27086067199707], [78.0511322021485, 19.241760253906193], [78.08225250244146, 19.254770278930607], [78.12670898437511, 19.24640274047863], [78.1497421264649, 19.23005104064947], [78.18331909179693, 19.241540908813533], [78.19715118408203, 19.331729888916016], [78.17959594726557, 19.353010177612532], [78.18216705322271, 19.411769866943473], [78.19811248779297, 19.407449722290096], [78.22426605224626, 19.434032440185604], [78.25199890136724, 19.430049896240348], [78.27321624755888, 19.453840255737305], [78.29733276367205, 19.448829650878963], [78.31195831298822, 19.465900421142635], [78.29502868652361, 19.537281036377067], [78.27910614013683, 19.558200836181697], [78.31114959716808, 19.57176971435547], [78.3109893798831, 19.60417938232422], [78.28755950927734, 19.654460906982422], [78.26972198486334, 19.66312980651861], [78.28581237792997, 19.689670562744254], [78.31606292724615, 19.690551757812443], [78.3452758789063, 19.713569641113338], [78.34541320800787, 19.734422683715934], [78.36080169677734, 19.753980636596793], [78.36699676513678, 19.794540405273438], [78.33921051025419, 19.81351089477539], [78.33899688720714, 19.83917999267578], [78.2941284179688, 19.849550247192383], [78.31019592285168, 19.91274070739746], [78.3351058959961, 19.910110473632812], [78.32296752929699, 19.894971847534123], [78.33625030517578, 19.883190155029354]]]}}, {"type": "Feature", "properties": {"district": "Hyderabad", "state": "Telangana", "title": "Hyderabad District, Telangana"}, "geometry": {"type": "Polygon", "coordinates": [[[78.50580596923828, 17.450159072876033], [78.53431701660168, 17.458469390869084], [78.51625061035156, 17.39467048645031], [78.52346801757824, 17.366390228271484], [78.5094223022461, 17.32530021667486], [78.4703979492188, 17.297071456909237], [78.44457244873047, 17.319690704345703], [78.44438934326172, 17.341558456421012], [78.39552307128906, 17.35243988037115], [78.38687133789074, 17.408149719238338], [78.415267944336, 17.429611206054688], [78.44396209716797, 17.397119522094783], [78.44303131103516, 17.423469543456974], [78.4729995727539, 17.46898078918457], [78.4854583740235, 17.471788406372013], [78.50580596923828, 17.450159072876033]]]}}, {"type": "Feature", "properties": {"district": "Karimnagar", "state": "Telangana", "title": "Karimnagar District, Telangana"}, "geometry": {"type": "Polygon", "coordinates": [[[79.06395721435553, 19.031869888305664], [79.10571289062506, 18.951240539550895], [79.18515014648432, 18.87331962585455], [79.2384872436524, 18.87000846862793], [79.28131866455095, 18.82916831970215], [79.3133316040039, 18.819900512695312], [79.3553466796875, 18.829950332641715], [79.38278198242205, 18.868061065673828], [79.4061813354495, 18.8666610717774], [79.44348144531256, 18.84950256347662], [79.51271820068365, 18.78959083557129], [79.56304168701189, 18.77851104736328], [79.64878082275419, 18.727119445800895], [79.68419647216803, 18.68030166625988], [79.75576782226574, 18.691768646240178], [79.80338287353516, 18.722179412841854], [79.84703826904314, 18.79743957519554], [79.82408905029325, 18.836931228637695], [79.8413925170899, 18.878759384155273], [79.8549194335938, 18.868379592895508], [79.86293029785162, 18.832559585571346], [79.89401245117193, 18.830839157104606], [79.9319915771485, 18.784429550171126], [80.01235198974638, 18.766759872436637], [80.04635620117205, 18.720920562744254], [80.10655975341825, 18.67752838134777], [80.15808105468744, 18.695940017700195], [80.17096710205084, 18.677339553833065], [80.18895721435575, 18.67558097839367], [80.20191192626982, 18.69744110107422], [80.2466659545899, 18.70132064819336], [80.26753997802763, 18.71796989440918], [80.2963104248048, 18.685640335083008], [80.33667755126953, 18.590520858764762], [80.26197814941418, 18.583602905273494], [80.22202301025408, 18.547910690307845], [80.21144104003918, 18.385250091552678], [80.16774749755865, 18.336370468139705], [80.13986206054693, 18.368392944335938], [80.14562225341803, 18.40859031677246], [80.13611602783232, 18.413299560547102], [80.09123992919928, 18.42687034606945], [80.07650756835955, 18.417690277099553], [80.06941223144531, 18.382299423217773], [80.05249023437506, 18.39612960815424], [80.02365875244158, 18.39614105224632], [80.02326202392595, 18.438039779663143], [80.03246307373053, 18.42645072937023], [80.071830749512, 18.42320060729986], [80.0977172851563, 18.452890396118278], [80.10925292968744, 18.45236015319847], [80.11167907714855, 18.461950302124137], [80.0454711914063, 18.477401733398494], [80.07882690429693, 18.513580322265625], [80.033500671387, 18.511711120605526], [80.01779937744146, 18.464241027832088], [79.98574066162115, 18.485919952392692], [79.96298217773438, 18.472780227661133], [79.9476165771485, 18.50451087951666], [79.87867736816406, 18.50629997253418], [79.90016174316418, 18.4655704498291], [79.91842651367193, 18.454830169677848], [79.91564941406278, 18.41975021362316], [79.87386322021513, 18.44016075134283], [79.8499374389649, 18.480680465698185], [79.8260269165039, 18.4962997436524], [79.80548858642584, 18.484750747680778], [79.82028961181635, 18.43134117126465], [79.81564331054693, 18.41302108764671], [79.78502655029297, 18.4266109466555], [79.74532318115263, 18.47711944580078], [79.71340179443365, 18.491069793701286], [79.67855834960966, 18.4925594329834], [79.6509170532226, 18.468601226806584], [79.59028625488281, 18.46635246276867], [79.58899688720703, 18.443229675293026], [79.572982788086, 18.421421051025447], [79.57985687255865, 18.347299575805664], [79.56569671630876, 18.295991897583008], [79.61660766601562, 18.177860260009822], [79.60279083251959, 18.140211105346623], [79.57993316650419, 18.140270233154524], [79.5870361328125, 18.11951065063488], [79.57000732421903, 18.121419906616268], [79.55655670166033, 18.101039886474723], [79.50625610351568, 18.09675025939947], [79.47175598144537, 18.110082626342717], [79.4544982910158, 18.07368278503418], [79.37177276611334, 18.016809463501204], [79.28492736816423, 18.012920379638786], [79.25051879882824, 17.996030807495117], [79.24809265136713, 17.974952697753906], [79.18673706054688, 17.990320205688533], [79.14444732666021, 17.981708526611328], [79.14235687255865, 17.99966049194336], [79.08975219726591, 18.020900726318473], [79.11458587646484, 18.029760360717887], [79.1060562133789, 18.049039840698185], [79.12915039062506, 18.076169967651367], [79.06713867187517, 18.078897476196232], [79.03054809570318, 18.093030929565487], [79.0365600585937, 18.12267112731928], [79.00953674316423, 18.13898086547863], [79.00948333740229, 18.19342994689964], [78.95942687988287, 18.212961196899528], [78.95475006103516, 18.251060485839957], [78.91078948974615, 18.249910354614315], [78.89180755615234, 18.235651016235465], [78.77390289306669, 18.26148986816412], [78.73977661132807, 18.215101242065487], [78.72503662109386, 18.215429306030273], [78.72165679931635, 18.2295303344726], [78.69233703613298, 18.228010177612305], [78.64498138427729, 18.24772071838379], [78.59693145751953, 18.246791839599553], [78.57205963134771, 18.2216415405274], [78.55116271972656, 18.25797080993658], [78.5171661376956, 18.282070159912053], [78.53665924072266, 18.299810409546012], [78.5456771850586, 18.335470199585075], [78.52873229980474, 18.382900238037166], [78.5607528686524, 18.387979507446516], [78.541732788086, 18.40857124328619], [78.54577636718778, 18.443540573120117], [78.52111053466803, 18.474679946899414], [78.55864715576172, 18.539949417114258], [78.589111328125, 18.54442977905296], [78.59863281249994, 18.575559616088924], [78.65299987792963, 18.597320556640625], [78.6736907958985, 18.622749328613338], [78.6467590332033, 18.657300949096623], [78.63683319091814, 18.725400924682617], [78.57961273193376, 18.73586273193365], [78.55568695068388, 18.761421203613338], [78.56291961669933, 18.783050537109375], [78.54617309570341, 18.822071075439453], [78.54071044921892, 18.87400817871088], [78.51821899414068, 18.90726280212425], [78.52864837646484, 18.94160079956066], [78.57711029052751, 18.985029220581055], [78.6311264038086, 18.978940963745117], [78.6654357910158, 19.0194606781007], [78.68181610107422, 19.025350570678768], [78.75388336181669, 19.01214981079113], [78.83043670654314, 19.056110382080078], [78.89682769775396, 19.02865982055664], [78.93917846679693, 19.064661026000977], [78.97046661376959, 19.07106971740734], [79.06395721435553, 19.031869888305664]]]}}, {"type": "Feature", "properties": {"district": "Khammam", "state": "Telangana", "title": "Khammam District, Telangana"}, "geometry": {"type": "Polygon", "coordinates": [[[80.48838806152355, 18.62672042846674], [80.63268280029314, 18.518840789794922], [80.65077972412126, 18.47228050231928], [80.69889068603521, 18.436000823974553], [80.69100952148438, 18.419349670410156], [80.7265396118164, 18.40899085998541], [80.71626281738287, 18.382940292358455], [80.74462127685564, 18.30218124389654], [80.78827667236322, 18.24978065490717], [80.73326873779303, 18.218790054321346], [80.7345581054688, 18.17171287536621], [80.79792785644537, 18.16629981994629], [80.81791687011724, 18.187120437622127], [80.81719207763678, 18.225210189819393], [80.82958984375006, 18.23411941528326], [80.85910034179688, 18.226001739501896], [80.86749267578125, 18.207258224487532], [80.84819793701189, 18.197650909423885], [80.8620223999024, 18.132669448852482], [80.90072631835943, 18.13467025756836], [80.95419311523466, 18.16698074340826], [80.97367858886719, 18.168149948120174], [80.97263336181646, 18.143550872802848], [80.94935607910162, 18.12318038940424], [80.94399261474615, 18.081020355224723], [80.96595764160162, 18.04346847534174], [81.0043487548831, 17.838348388671875], [81.03765106201178, 17.78623962402355], [81.07360076904325, 17.78629112243658], [81.08908843994158, 17.810871124267805], [81.15956878662115, 17.852630615234318], [81.19196319580084, 17.847101211547965], [81.26336669921903, 17.81046295166027], [81.40925598144543, 17.80483818054205], [81.41941833496088, 17.82059860229515], [81.46684265136724, 17.82492065429699], [81.48583984375017, 17.80261039733881], [81.56874084472685, 17.827880859375], [81.61115264892595, 17.81536293029785], [81.64279174804705, 17.839281082153434], [81.66306304931646, 17.876930236816463], [81.68828582763678, 17.88479995727539], [81.7031707763673, 17.861129760742415], [81.75829315185558, 17.893360137939396], [81.79440307617182, 17.844150543212834], [81.75293731689459, 17.818309783935774], [81.72342681884794, 17.815221786499023], [81.68477630615251, 17.770561218261832], [81.62306213378918, 17.762790679931697], [81.57662200927751, 17.726091384887695], [81.57116699218756, 17.687868118286246], [81.50292968750028, 17.58987998962408], [81.52371978759794, 17.569709777832088], [81.49946594238293, 17.531539916992415], [81.49341583251947, 17.448820114135742], [81.43364715576178, 17.37494277954096], [81.38522338867199, 17.355131149292106], [81.32469940185553, 17.390649795532283], [81.2671661376956, 17.319999694824276], [81.18154144287138, 17.32222938537609], [81.1706161499024, 17.29646110534668], [81.18055725097668, 17.2546005249024], [81.16278839111334, 17.23258018493658], [81.06221008300798, 17.204099655151367], [81.04654693603516, 17.213817596435547], [81.02617645263689, 17.18666839599615], [80.98516082763689, 17.17938995361328], [80.930648803711, 17.205030441284123], [80.9053497314456, 17.20129013061529], [80.91330718994146, 17.145950317382756], [80.87030792236328, 17.146301269531364], [80.85504913330078, 17.11141014099121], [80.86421203613298, 17.09581756591797], [80.85884857177729, 17.050851821899414], [80.8324661254884, 17.02571105957054], [80.82322692871111, 17.037780761718864], [80.7257308959961, 17.064609527587834], [80.68399810791033, 17.068740844726562], [80.63960266113287, 17.05512046813959], [80.63775634765653, 17.071939468383846], [80.65664672851591, 17.08776283264166], [80.62523651123064, 17.101739883422965], [80.62975311279325, 17.11001968383789], [80.56017303466797, 17.1380290985108], [80.51941680908209, 17.108150482177734], [80.49611663818376, 17.10786056518566], [80.48220062255876, 17.050270080566406], [80.45288848876959, 17.037042617797965], [80.4462432861331, 17.017021179199162], [80.42053985595697, 17.024860382080135], [80.39508819580084, 17.077568054199276], [80.37416076660185, 17.063110351562557], [80.36775207519548, 17.05269813537609], [80.38790893554716, 17.007299423217773], [80.35824584960943, 16.970630645751953], [80.44254302978521, 16.944940567016715], [80.48781585693371, 16.91744041442871], [80.49130249023432, 16.94818115234375], [80.52069091796875, 16.936399459839095], [80.53173828124994, 16.95017814636242], [80.58419036865229, 16.926519393921012], [80.58674621582037, 16.87393951416027], [80.5649719238283, 16.869039535522518], [80.55458068847685, 16.824789047241268], [80.60410308837896, 16.787759780883903], [80.56281280517607, 16.762830734253157], [80.45639801025385, 16.790029525756836], [80.45260620117205, 16.81529045104986], [80.399711608887, 16.849739074706974], [80.39914703369169, 16.83158111572277], [80.37293243408209, 16.81110000610363], [80.358627319336, 16.854909896850586], [80.33495330810564, 16.855739593505973], [80.33731079101568, 16.867080688476676], [80.31922149658232, 16.870941162109375], [80.31537628173834, 16.91238975524908], [80.28898620605486, 16.97680282592779], [80.26217651367199, 17.010629653930664], [80.2357482910158, 17.002330780029354], [80.21784210205095, 17.019620895385856], [80.20125579833984, 17.013139724731502], [80.19426727294933, 17.042512893676815], [80.18212890625, 17.044940948486442], [80.13385772705072, 16.985359191894474], [80.08769226074247, 16.98744010925293], [80.08423614501982, 16.96319007873558], [80.04588317871105, 16.965299606323242], [80.04952239990263, 17.019269943237248], [79.99179077148455, 17.062429428100586], [79.93924713134771, 17.12330818176264], [79.90563964843756, 17.128799438476506], [79.90598297119158, 17.14654159545921], [79.86987304687528, 17.17193984985363], [79.87240600585955, 17.202640533447322], [79.89164733886719, 17.21186065673851], [79.88288879394548, 17.256401062011662], [79.81822967529314, 17.269880294799748], [79.78511047363287, 17.313539505004883], [79.81157684326189, 17.330371856689453], [79.86441802978516, 17.327062606811637], [79.87165069580095, 17.35301017761242], [79.88395690917997, 17.348489761352596], [79.88857269287104, 17.365640640259016], [79.92365264892607, 17.36882972717285], [79.93238830566418, 17.388210296630916], [79.96190643310553, 17.398279190063533], [79.97881317138672, 17.394309997558594], [79.99205780029303, 17.35646820068365], [80.04651641845703, 17.340629577636776], [80.07270050048828, 17.360889434814453], [80.10337829589861, 17.357540130615348], [80.1285400390625, 17.385509490966854], [80.15406799316435, 17.37178993225109], [80.1614379882813, 17.4484100341798], [80.1207580566408, 17.44008064270031], [80.12010192871122, 17.475660324096793], [80.09234619140625, 17.490289688110295], [80.07627868652344, 17.521511077880916], [80.07936859130876, 17.569351196289176], [80.04637145996111, 17.589900970458928], [80.06807708740234, 17.64591026306158], [80.08233642578153, 17.65340042114252], [80.06774902343756, 17.67568016052269], [80.03678894042969, 17.691160202026424], [80.04389953613281, 17.709131240844783], [80.06858825683622, 17.70528030395502], [80.15644836425787, 17.747030258178768], [80.16529846191435, 17.705932617187614], [80.23097991943376, 17.745941162109432], [80.237808227539, 17.730329513549748], [80.2484664916995, 17.737159729003963], [80.24611663818365, 17.821790695190657], [80.26983642578153, 17.865209579467773], [80.27593994140653, 17.90319061279297], [80.2651977539063, 17.927650451660156], [80.26969146728533, 17.96231269836437], [80.30208587646479, 17.967571258544922], [80.33764648437506, 18.011432647705078], [80.3412170410158, 18.030828475952376], [80.38748168945324, 18.076169967651367], [80.42777252197294, 18.053159713745174], [80.45221710205078, 18.054229736328068], [80.44933319091791, 18.073120117187443], [80.47226715087908, 18.116210937500114], [80.46037292480497, 18.12894058227539], [80.49249267578142, 18.133390426635742], [80.52979278564482, 18.093151092529524], [80.55782318115263, 18.09680938720703], [80.5904159545899, 18.076362609863224], [80.61019134521484, 18.106599807739258], [80.63125610351591, 18.104801177978572], [80.63656616210943, 18.119230270385685], [80.61898803710943, 18.121210098266715], [80.62403869628935, 18.134019851684513], [80.6486129760745, 18.128099441528263], [80.64256286621094, 18.148660659790153], [80.6532363891601, 18.149700164794865], [80.65500640869158, 18.169040679931697], [80.53044128417986, 18.255590438842887], [80.49681091308622, 18.26078033447277], [80.46998596191423, 18.29519081115717], [80.45984649658203, 18.349809646606502], [80.46790313720703, 18.38021278381359], [80.45025634765653, 18.399370193481445], [80.45501708984403, 18.44614028930664], [80.39691925048845, 18.45330047607422], [80.37355041503912, 18.4685897827149], [80.3692169189456, 18.5286026000976], [80.39494323730497, 18.566890716552734], [80.38156127929693, 18.593599319458235], [80.45020294189459, 18.62635040283226], [80.48838806152355, 18.62672042846674]]]}}, {"type": "Feature", "properties": {"district": "Mahabubnagar", "state": "Telangana", "title": "Mahabubnagar District, Telangana"}, "geometry": {"type": "Polygon", "coordinates": [[[77.78630828857422, 17.221759796142692], [77.7621688842774, 17.198539733886776], [77.7831115722658, 17.170141220092717], [77.783447265625, 17.149890899658203], [77.76621246337902, 17.125389099121094], [77.77504730224604, 17.107389450073185], [77.76447296142584, 17.10324287414562], [77.75025177001947, 17.05810928344738], [77.77037811279303, 17.054729461669922], [77.7835083007813, 17.039051055908146], [77.77366638183622, 17.014249801635856], [77.75837707519537, 17.007259368896484], [77.75358581542974, 16.965681076049805], [77.72614288330084, 16.93905830383295], [77.73986053466803, 16.90875244140625], [77.73326873779291, 16.87677192687994], [77.79057312011724, 16.87055015563965], [77.80927276611334, 16.88538932800293], [77.81656646728527, 16.860849380493107], [77.83661651611357, 16.85262107849121], [77.90474700927729, 16.85701942443859], [77.91890716552751, 16.843160629272575], [77.95072937011719, 16.863220214843807], [77.97251129150408, 16.84551048278803], [77.98551940917974, 16.869279861450195], [77.96388244628906, 16.86487960815441], [77.96462249755888, 16.884969711303825], [78.00942230224638, 16.901649475097656], [78.00894927978516, 16.945840835571516], [77.98345184326178, 16.955730438232422], [77.99783325195312, 16.97383117675804], [77.97405242919928, 17.004180908203182], [77.93152618408209, 17.02428054809593], [77.91796112060564, 17.058378219604492], [77.94554901123075, 17.069791793823356], [77.9309158325197, 17.081811904907283], [77.98549652099615, 17.099090576171875], [77.98752593994135, 17.122922897338924], [78.02279663085966, 17.16887283325201], [78.06256866455084, 17.194759368896484], [78.08036041259777, 17.191129684448242], [78.0897598266601, 17.16684913635254], [78.09326934814459, 17.147172927856445], [78.08017730712919, 17.12127113342285], [78.09713745117199, 17.097249984741325], [78.12684631347662, 17.108221054077205], [78.17733001709001, 17.0956707000733], [78.17456817626959, 17.129190444946403], [78.18766784667969, 17.141841888427848], [78.16646575927751, 17.151830673217717], [78.16800689697283, 17.16686058044445], [78.20841217041016, 17.181480407714844], [78.22126770019537, 17.20191955566412], [78.256576538086, 17.20176124572754], [78.26538085937528, 17.220798492431754], [78.28875732421875, 17.219970703124943], [78.30422973632818, 17.14191246032709], [78.36135101318388, 17.080688476562614], [78.3446121215822, 17.070142745971793], [78.36010742187506, 17.06484985351574], [78.38320922851568, 17.03022003173828], [78.44709777832037, 16.995220184326172], [78.45482635498041, 16.97697067260765], [78.5046157836914, 17.008441925049055], [78.51629638671892, 16.987279891967773], [78.55587005615263, 16.97573089599632], [78.57882690429705, 16.94679832458496], [78.64350891113298, 16.95030975341797], [78.68058776855474, 16.925519943237532], [78.74369049072271, 16.90450096130371], [78.72135162353521, 16.86591148376459], [78.72947692871088, 16.854850769043082], [78.74455261230463, 16.848922729492244], [78.77131652832031, 16.87512969970703], [78.77778625488298, 16.862630844116325], [78.77137756347662, 16.83844947814964], [78.79759216308594, 16.817369461059513], [78.78613281249994, 16.75493812561041], [78.77542877197294, 16.741090774536133], [78.75595092773466, 16.739110946655273], [78.75065612792963, 16.701011657714844], [78.7118530273438, 16.675210952758846], [78.71057128906278, 16.642890930175838], [78.66726684570341, 16.64281082153343], [78.71125030517584, 16.575510025024357], [78.67838287353516, 16.547689437866268], [78.66665649414068, 16.563518524170036], [78.65959167480474, 16.536111831665096], [78.63275146484403, 16.544490814208984], [78.61099243164091, 16.513269424438533], [78.64095306396513, 16.52815055847168], [78.65796661376953, 16.520618438720817], [78.67563629150402, 16.531972885131836], [78.71112823486357, 16.531820297241268], [78.75930786132818, 16.528060913085994], [78.78746032714838, 16.510299682617188], [78.83766937255876, 16.541339874267805], [78.90570831298857, 16.544200897217024], [78.92491912841803, 16.511209487915153], [78.97368621826172, 16.487611770629883], [79.00977325439459, 16.483430862426758], [79.21147155761713, 16.36281013488781], [79.22785186767607, 16.336811065673828], [79.21868896484403, 16.23964118957514], [79.17658233642578, 16.21713066101097], [79.13317871093756, 16.236379623413143], [79.03093719482428, 16.245742797851562], [78.92549896240246, 16.202339172363395], [78.9054565429688, 16.181869506835994], [78.92186737060553, 16.1218719482423], [78.9104766845706, 16.10522270202648], [78.88906860351574, 16.098560333251953], [78.87267303466808, 16.110170364379883], [78.86293792724621, 16.153089523315543], [78.83783721923828, 16.156738281250057], [78.83049774169928, 16.14215087890625], [78.83650207519531, 16.087377548217773], [78.80799865722662, 16.046190261840934], [78.77504730224638, 16.023609161376953], [78.71366882324219, 16.026660919189453], [78.61701202392578, 16.098909378051758], [78.55912780761747, 16.05637168884283], [78.42095184326178, 16.08284950256342], [78.34041595459001, 16.052770614624137], [78.31620788574236, 16.02915191650402], [78.25666809082031, 16.03129959106451], [78.25974273681658, 15.99473094940197], [78.23796844482422, 15.929051399230957], [78.18003082275408, 15.900449752807617], [78.16467285156278, 15.848990440368652], [78.12583160400408, 15.848931312561149], [78.12687683105474, 15.834920883178768], [78.10958099365263, 15.827180862426985], [78.06366729736345, 15.844561576843489], [78.04071807861357, 15.872200965881461], [78.03629302978527, 15.90209102630621], [78.01696777343756, 15.895149230957031], [78.00186920166033, 15.85923004150402], [77.887680053711, 15.895921707153263], [77.86694335937528, 15.892389297485408], [77.85011291503912, 15.873821258545036], [77.79918670654303, 15.865320205688704], [77.71611785888672, 15.886570930481184], [77.6589431762697, 15.876520156860352], [77.60637664794933, 15.911729812622184], [77.50945281982428, 15.920860290527287], [77.51010894775385, 16.002250671386776], [77.49072265625, 16.03063011169445], [77.50293731689459, 16.073232650756836], [77.49288940429699, 16.083770751953125], [77.50939941406267, 16.10353088378912], [77.4866714477539, 16.11576080322277], [77.48362731933611, 16.15855026245123], [77.4953231811524, 16.213001251220703], [77.5111694335938, 16.21718978881836], [77.48876190185547, 16.224349975585938], [77.48755645751964, 16.249820709228516], [77.50122833251959, 16.26781082153326], [77.53378295898438, 16.262630462646484], [77.54321289062506, 16.287059783935604], [77.5649871826173, 16.297710418701172], [77.59030151367193, 16.286851882934798], [77.59160614013689, 16.33751106262207], [77.55452728271513, 16.341560363769588], [77.51885986328153, 16.37010955810547], [77.49449157714844, 16.37578964233404], [77.43811035156256, 16.374429702758903], [77.41174316406267, 16.362680435180664], [77.3731994628908, 16.37992095947277], [77.34294891357428, 16.379720687866154], [77.28466033935541, 16.4029998779298], [77.23517608642584, 16.468080520629996], [77.29199981689459, 16.4736385345459], [77.29664611816435, 16.49147033691412], [77.32440948486334, 16.480930328369254], [77.3662872314456, 16.484109878540153], [77.37908172607416, 16.51072120666504], [77.4153213500976, 16.517829895019645], [77.41565704345732, 16.544000625610465], [77.40157318115263, 16.54677963256836], [77.39144134521513, 16.565200805664062], [77.41728973388672, 16.563909530639705], [77.43672943115251, 16.58120918273937], [77.46417236328142, 16.584209442138672], [77.45382690429716, 16.613798141479492], [77.46939086914068, 16.646911621093977], [77.43293762207037, 16.637638092041072], [77.41657257080084, 16.66281127929699], [77.4617004394533, 16.67235946655279], [77.46750640869146, 16.696800231933594], [77.46679687500028, 16.711940765380803], [77.42341613769537, 16.71453094482422], [77.43753814697271, 16.78321075439453], [77.47113800048834, 16.779130935669173], [77.4566268920899, 16.823749542236328], [77.45339965820318, 16.909032821655273], [77.46774291992216, 16.91711044311529], [77.4640731811524, 16.952690124511832], [77.47918701171903, 16.968032836914062], [77.47837066650396, 16.99024963378912], [77.49938964843778, 17.00732040405279], [77.47692108154291, 17.076232910156307], [77.46031188964872, 17.092840194702262], [77.48168945312494, 17.130451202392578], [77.47268676757841, 17.139408111572266], [77.4752197265625, 17.171300888061523], [77.53547668457026, 17.162790298461857], [77.54801177978527, 17.136760711669922], [77.5760116577149, 17.126659393310547], [77.58513641357422, 17.14698028564453], [77.61900329589872, 17.149499893188477], [77.61324310302746, 17.163619995117244], [77.64505767822271, 17.17851066589367], [77.69983673095714, 17.170419692993107], [77.6925659179688, 17.19464111328125], [77.71478271484375, 17.204750061035156], [77.73705291748075, 17.176980972290096], [77.73439025878935, 17.22661972045904], [77.75714874267595, 17.218130111694393], [77.77085876464844, 17.233221054077262], [77.78630828857422, 17.221759796142692]]]}}, {"type": "Feature", "properties": {"district": "Medak", "state": "Telangana", "title": "Medak District, Telangana"}, "geometry": {"type": "Polygon", "coordinates": [[[77.70491790771484, 18.25868034362793], [77.7208099365235, 18.258300781250114], [77.7408065795899, 18.204259872436637], [77.75585937500006, 18.205400466918945], [77.76856994628906, 18.188369750976562], [77.7922668457033, 18.20319938659668], [77.82514953613293, 18.194030761718864], [77.85077667236328, 18.204980850219727], [77.86730957031261, 18.188842773437614], [77.90143585205084, 18.19176101684593], [77.90255737304693, 18.16632270812994], [77.89318084716803, 18.157962799072266], [77.90056610107422, 18.145130157470646], [77.93377685546892, 18.149539947509766], [77.90718841552763, 18.121089935302678], [77.92710113525408, 18.114839553833065], [77.92408160759878, 18.103278232785748], [77.93756866455078, 18.110059738159293], [77.9993972778322, 18.111219406127873], [78.01793670654303, 18.094238281250114], [78.0896072387697, 18.073881149291992], [78.1041259765625, 18.09510993957514], [78.11264801025385, 18.07657051086437], [78.13617706298834, 18.073749542236442], [78.1649169921875, 18.09874153137207], [78.1679229736331, 18.176229476928825], [78.19818878173834, 18.216640472412053], [78.20771789550787, 18.216159820556697], [78.21315002441435, 18.17596817016613], [78.26790618896479, 18.141429901123104], [78.3215408325197, 18.19729042053234], [78.35476684570318, 18.169380187988338], [78.38336181640625, 18.121620178222656], [78.4093627929688, 18.129560470581055], [78.43618011474626, 18.163469314575252], [78.45066833496111, 18.129760742187443], [78.4850463867188, 18.129680633544865], [78.48992156982416, 18.16205978393566], [78.5629425048831, 18.185089111328068], [78.56310272216808, 18.22673988342285], [78.57205963134771, 18.2216415405274], [78.59693145751953, 18.246791839599553], [78.65785217285162, 18.245891571044922], [78.69233703613298, 18.228010177612305], [78.72165679931635, 18.2295303344726], [78.72503662109386, 18.215429306030273], [78.73977661132807, 18.215101242065487], [78.77390289306669, 18.26148986816412], [78.89180755615234, 18.235651016235465], [78.93633270263678, 18.253932952880916], [78.95903015136724, 18.24882125854498], [78.95942687988287, 18.212961196899528], [79.00948333740229, 18.19342994689964], [79.00953674316423, 18.13898086547863], [79.0365600585937, 18.12267112731928], [79.03054809570318, 18.093030929565487], [79.06713867187517, 18.078897476196232], [79.12915039062506, 18.076169967651367], [79.1060562133789, 18.049039840698185], [79.10923004150385, 18.022539138794173], [79.0701293945312, 18.016139984130973], [79.0442733764649, 18.029430389404354], [78.9937362670899, 17.99567985534668], [78.96140289306669, 18.030580520629996], [78.94422149658232, 17.990510940551815], [78.92359924316418, 17.989498138427734], [78.90170288085966, 17.955579757690373], [78.87477874755888, 17.959390640258846], [78.82232666015653, 17.87507057189947], [78.86612701416021, 17.862510681152457], [78.86991882324236, 17.8245906829834], [78.8529663085938, 17.747699737548828], [78.82087707519548, 17.738449096679688], [78.80549621582037, 17.70253944396984], [78.78060150146479, 17.704309463500977], [78.78687286376982, 17.690839767455998], [78.77214813232433, 17.672319412231502], [78.74835968017572, 17.679191589355526], [78.71399688720732, 17.662620544433707], [78.69741821289091, 17.680231094360465], [78.65798187255876, 17.6918182373048], [78.64655303955095, 17.673000335693473], [78.61943817138672, 17.663610458374023], [78.593070983887, 17.696870803833008], [78.55385589599626, 17.683000564575252], [78.52095794677746, 17.69579124450678], [78.49610900878912, 17.680120468139762], [78.44525909423857, 17.708641052246094], [78.42472076416033, 17.697250366210938], [78.41471099853527, 17.66588973999029], [78.39018249511719, 17.669269561767578], [78.37654113769537, 17.629150390625], [78.35495758056646, 17.619630813598633], [78.37023925781256, 17.599889755249023], [78.34345245361328, 17.53988075256342], [78.34902191162126, 17.51966094970703], [78.33014678955078, 17.500780105590763], [78.29155731201166, 17.487670898437727], [78.29765319824213, 17.45170974731468], [78.25759124755888, 17.415050506591797], [78.21334075927763, 17.435979843139762], [78.2086257934572, 17.48266983032238], [78.18332672119146, 17.486360549926815], [78.18905639648443, 17.47599983215332], [78.15278625488287, 17.46096038818382], [78.13774108886724, 17.483472824096793], [78.10555267334013, 17.479160308837947], [78.080307006836, 17.4935302734375], [78.0768661499024, 17.52086067199707], [78.05412292480486, 17.505310058593693], [78.05982208251953, 17.485530853271598], [78.04669952392595, 17.47231101989746], [78.05549621582037, 17.467800140380973], [78.0494003295899, 17.456190109253043], [78.01458740234403, 17.4719295501709], [77.98690795898466, 17.503810882568416], [77.9778900146485, 17.48242950439453], [77.96048736572283, 17.480319976806868], [77.97013092041044, 17.515300750732536], [77.95880889892584, 17.531692504882812], [77.93369293212919, 17.535600662231502], [77.91825103759794, 17.570779800414982], [77.86972808837896, 17.577770233154354], [77.85143280029303, 17.640270233154297], [77.8235931396485, 17.643100738525334], [77.81165313720732, 17.623231887817326], [77.79361724853521, 17.621919631958008], [77.77979278564482, 17.63605117797846], [77.77330017089872, 17.623582839965934], [77.74340057373047, 17.621789932251033], [77.74568939208984, 17.609371185302734], [77.76380157470703, 17.609598159790266], [77.76989746093744, 17.59901046752941], [77.75705718994152, 17.556222915649528], [77.68631744384794, 17.524299621582088], [77.68325042724621, 17.50402069091797], [77.6566162109375, 17.521339416503906], [77.5917282104495, 17.532680511474553], [77.58982849121122, 17.562759399414062], [77.54839324951183, 17.549459457397575], [77.52742004394543, 17.573221206665153], [77.50161743164068, 17.54088020324707], [77.48999786376959, 17.566270828247127], [77.43992614746088, 17.581470489502067], [77.45321655273449, 17.630769729614485], [77.4450073242188, 17.64842033386236], [77.45034790039068, 17.691299438476562], [77.4942779541015, 17.716039657592773], [77.53936004638672, 17.725421905517805], [77.56202697753923, 17.747110366821516], [77.56595611572294, 17.764110565185604], [77.50448608398443, 17.78259086608881], [77.5108795166015, 17.801441192626953], [77.52607727050793, 17.81168937683111], [77.52600097656267, 17.826818466186637], [77.54973602294933, 17.818029403686637], [77.57274627685553, 17.872810363769645], [77.59668731689482, 17.8704509735108], [77.5851669311524, 17.908229827880803], [77.61657714843767, 17.90286827087408], [77.62374114990246, 17.957750320434684], [77.62972259521484, 17.96297073364252], [77.64398956298857, 17.946371078491325], [77.65339660644548, 17.969352722167912], [77.643608093262, 17.973449707031307], [77.6461791992188, 17.993200302124023], [77.62879943847673, 17.992519378662223], [77.60666656494158, 18.01801109313965], [77.5922470092774, 18.010168075561523], [77.58496856689459, 18.024789810180664], [77.55311584472662, 18.034669876098633], [77.54574584960966, 18.053760528564396], [77.56733703613276, 18.076290130615234], [77.59745788574247, 18.084289550781477], [77.60056304931658, 18.09939956665039], [77.59777069091803, 18.15184020996105], [77.57936096191406, 18.162120819091797], [77.56431579589861, 18.189979553222713], [77.58496093750006, 18.21674156188965], [77.57253265380876, 18.24056053161621], [77.5990295410158, 18.2729110717774], [77.62523651123053, 18.28287124633789], [77.66439819335966, 18.28129005432129], [77.68636322021484, 18.259960174560547], [77.70491790771484, 18.25868034362793]], [[77.92334511756266, 18.102907913956724], [77.90260314941435, 18.103429794311523], [77.89353942871111, 18.087921142578182], [77.92334511756266, 18.102907913956724]]]}}, {"type": "Feature", "properties": {"district": "Nalgonda", "state": "Telangana", "title": "Nalgonda District, Telangana"}, "geometry": {"type": "Polygon", "coordinates": [[[78.88191986084001, 17.80000114440918], [78.98227691650396, 17.784189224243278], [79.0182418823245, 17.704561233520565], [79.0454788208009, 17.717990875244197], [79.06820678710966, 17.707590103149414], [79.09001159667986, 17.674011230468977], [79.11754608154303, 17.662860870361555], [79.13181304931646, 17.624370574951286], [79.14536285400396, 17.615261077880803], [79.14140319824224, 17.587961196899414], [79.15490722656256, 17.57368850708002], [79.20037841796903, 17.619670867919922], [79.21967315673822, 17.55882072448742], [79.25036621093778, 17.556491851806754], [79.26819610595709, 17.57357978820812], [79.28164672851591, 17.552328109741325], [79.30603790283232, 17.544771194458065], [79.31140136718778, 17.52407073974615], [79.37664031982416, 17.499250411987532], [79.39631652832048, 17.494659423828125], [79.41458892822294, 17.51029014587408], [79.46109771728544, 17.5102596282959], [79.51136779785156, 17.4896297454834], [79.53116607666033, 17.518320083618107], [79.55211639404291, 17.49616813659668], [79.57905578613298, 17.491350173950252], [79.6218032836914, 17.485870361328125], [79.64707946777372, 17.49870109558111], [79.64704132080084, 17.46580123901373], [79.69644927978527, 17.446950912475586], [79.71379089355474, 17.426851272583065], [79.75094604492193, 17.42480087280279], [79.75521087646513, 17.402040481567383], [79.77937316894537, 17.38150024414074], [79.75965118408203, 17.368991851806754], [79.80716705322283, 17.280509948730526], [79.81822967529314, 17.269880294799748], [79.87201690673845, 17.261432647705192], [79.88964080810553, 17.246459960937614], [79.89164733886719, 17.21186065673851], [79.87240600585955, 17.202640533447322], [79.86987304687528, 17.17193984985363], [79.90598297119158, 17.14654159545921], [79.90563964843756, 17.128799438476506], [79.94532775878912, 17.11849021911621], [80.05396270751953, 17.010120391845703], [80.03705596923834, 16.936470031738338], [80.0095520019533, 16.907260894775334], [79.99167633056646, 16.86325073242199], [80.03309631347668, 16.85244941711437], [80.04183959960943, 16.826061248779297], [80.06967163085943, 16.813608169555664], [80.04789733886736, 16.74515151977539], [79.99151611328136, 16.6925506591798], [79.95815277099638, 16.64204978942871], [79.92366790771479, 16.63073921203636], [79.90207672119169, 16.63784980773937], [79.86183929443388, 16.69822120666504], [79.81025695800787, 16.690490722656193], [79.77490234374994, 16.729520797729606], [79.7227401733399, 16.69260978698736], [79.66864013671903, 16.68400955200218], [79.64803314209013, 16.662000656128043], [79.59990692138678, 16.663270950317383], [79.55399322509794, 16.634590148925724], [79.49717712402372, 16.630510330200195], [79.45059204101574, 16.609149932861328], [79.4265899658206, 16.582521438598746], [79.33333587646513, 16.578521728515568], [79.26611328125006, 16.561470031738338], [79.22527313232428, 16.508220672607536], [79.23618316650396, 16.458539962768555], [79.21906280517607, 16.438169479370174], [79.21147155761713, 16.36281013488781], [79.00977325439459, 16.483430862426758], [78.97368621826172, 16.487611770629883], [78.92491912841803, 16.511209487915153], [78.90570831298857, 16.544200897217024], [78.83766937255876, 16.541339874267805], [78.78746032714838, 16.510299682617188], [78.75930786132818, 16.528060913085994], [78.71112823486357, 16.531820297241268], [78.67563629150402, 16.531972885131836], [78.65796661376953, 16.520618438720817], [78.64095306396513, 16.52815055847168], [78.61099243164091, 16.513269424438533], [78.63275146484403, 16.544490814208984], [78.65959167480474, 16.536111831665096], [78.66665649414068, 16.563518524170036], [78.67838287353516, 16.547689437866268], [78.71125030517584, 16.575510025024357], [78.66726684570341, 16.64281082153343], [78.71057128906278, 16.642890930175838], [78.7118530273438, 16.675210952758846], [78.75065612792963, 16.701011657714844], [78.75193023681652, 16.732242584228572], [78.78189086914091, 16.747270584106502], [78.79035949707048, 16.773668289184684], [78.79759216308594, 16.817369461059513], [78.77137756347662, 16.83844947814964], [78.77778625488298, 16.862630844116325], [78.77131652832031, 16.87512969970703], [78.74455261230463, 16.848922729492244], [78.72947692871088, 16.854850769043082], [78.72135162353521, 16.86591148376459], [78.74369049072271, 16.90450096130371], [78.69513702392607, 16.927761077881087], [78.70043945312511, 16.95728111267084], [78.74822998046892, 16.960861206054915], [78.75263977050787, 16.97253990173334], [78.78318023681646, 16.96807098388672], [78.82398223876959, 17.012550354004134], [78.81344604492205, 17.027019500732536], [78.78192901611322, 17.03335952758789], [78.79264831542986, 17.043170928955135], [78.83180236816412, 17.037401199340877], [78.8489608764649, 17.07396125793457], [78.8179931640625, 17.101030349731445], [78.8193664550783, 17.108720779419173], [78.83497619628906, 17.10540008544922], [78.83271789550798, 17.119882583618107], [78.77953338623053, 17.14657020568842], [78.78465270996111, 17.188381195068473], [78.76287078857422, 17.214340209961165], [78.8074417114259, 17.204080581665096], [78.820541381836, 17.231479644775504], [78.74916839599626, 17.267171859741325], [78.7548599243164, 17.27483940124506], [78.74096679687517, 17.292079925537166], [78.76317596435553, 17.30652046203636], [78.74059295654314, 17.32108116149908], [78.76367187500017, 17.343891143798828], [78.73429107666033, 17.35481071472168], [78.75411224365251, 17.43959045410162], [78.70709991455084, 17.43470191955572], [78.72062683105474, 17.47302818298334], [78.70509338378923, 17.48425102233898], [78.70722961425781, 17.520069122314567], [78.68165588378923, 17.573770523071403], [78.69069671630865, 17.58473968505865], [78.68408203124994, 17.592468261718693], [78.71399688720732, 17.662620544433707], [78.74835968017572, 17.679191589355526], [78.77214813232433, 17.672319412231502], [78.78687286376982, 17.690839767455998], [78.78060150146479, 17.704309463500977], [78.80549621582037, 17.70253944396984], [78.82087707519548, 17.738449096679688], [78.8529663085938, 17.747699737548828], [78.8633575439456, 17.804990768432674], [78.88191986084001, 17.80000114440918]]]}}, {"type": "Feature", "properties": {"district": "Nizamabad", "state": "Telangana", "title": "Nizamabad District, Telangana"}, "geometry": {"type": "MultiPolygon", "coordinates": [[[[77.92334511756266, 18.102907913956724], [77.89353942871111, 18.087921142578182], [77.90260314941435, 18.103429794311523], [77.92334511756266, 18.102907913956724]]], [[[77.92408160759878, 18.103278232785748], [77.92710113525408, 18.114839553833065], [77.90718841552763, 18.121089935302678], [77.93377685546892, 18.149539947509766], [77.90056610107422, 18.145130157470646], [77.89318084716803, 18.157962799072266], [77.90255737304693, 18.16632270812994], [77.90143585205084, 18.19176101684593], [77.86730957031261, 18.188842773437614], [77.85077667236328, 18.204980850219727], [77.82514953613293, 18.194030761718864], [77.7922668457033, 18.20319938659668], [77.76856994628906, 18.188369750976562], [77.75585937500006, 18.205400466918945], [77.7408065795899, 18.204259872436637], [77.7208099365235, 18.258300781250114], [77.68636322021484, 18.259960174560547], [77.66439819335966, 18.28129005432129], [77.5990295410158, 18.2729110717774], [77.59784698486322, 18.281219482421818], [77.54995727539091, 18.2913494110108], [77.57022857666033, 18.308179855346737], [77.56691741943388, 18.317949295043945], [77.51950073242205, 18.34925270080572], [77.52140045166033, 18.364650726318303], [77.549301147461, 18.38771820068365], [77.55520629882818, 18.417852401733455], [77.5259399414062, 18.42735099792486], [77.52848052978533, 18.440481185913086], [77.56017303466803, 18.43504905700695], [77.58521270751964, 18.445449829101562], [77.54619598388689, 18.463382720947322], [77.57063293457048, 18.466859817504883], [77.57652282714861, 18.483779907226506], [77.60106658935575, 18.474210739135742], [77.60283660888689, 18.491380691528377], [77.58627319335955, 18.502920150756893], [77.60144805908232, 18.521949768066406], [77.59329223632812, 18.523141860961914], [77.59726715087919, 18.54754066467285], [77.6488113403322, 18.552619934081974], [77.64528656005871, 18.536300659179744], [77.6575698852539, 18.527200698852596], [77.71235656738281, 18.554439544677678], [77.7365112304687, 18.554809570312557], [77.7480926513673, 18.60531044006342], [77.72811126709013, 18.66420936584484], [77.75762939453136, 18.707090377807617], [77.78643798828136, 18.684120178222713], [77.83746337890642, 18.807460784912337], [77.90759277343778, 18.82951927185053], [77.94255065917986, 18.822290420532454], [77.94413757324224, 18.842290878296012], [77.96842193603544, 18.87531089782709], [78.02480316162115, 18.87638282775879], [78.04722595214838, 18.91807937622093], [78.06909942626964, 18.935440063476506], [78.2019882202149, 18.998390197753906], [78.23287200927734, 19.002630233764876], [78.26040649414074, 18.990320205688704], [78.27684020996122, 18.943479537963924], [78.2989883422851, 18.9445095062257], [78.38858032226574, 18.990148544311523], [78.4383392333985, 18.958570480346907], [78.50550842285168, 18.958499908447322], [78.52864837646484, 18.94160079956066], [78.51821899414068, 18.90726280212425], [78.54071044921892, 18.87400817871088], [78.54617309570341, 18.822071075439453], [78.56291961669933, 18.783050537109375], [78.55568695068388, 18.761421203613338], [78.57961273193376, 18.73586273193365], [78.63683319091814, 18.725400924682617], [78.6467590332033, 18.657300949096623], [78.6736907958985, 18.622749328613338], [78.65299987792963, 18.597320556640625], [78.59863281249994, 18.575559616088924], [78.589111328125, 18.54442977905296], [78.55864715576172, 18.539949417114258], [78.51918792724615, 18.467609405517692], [78.54577636718778, 18.443540573120117], [78.541732788086, 18.40857124328619], [78.5607528686524, 18.387979507446516], [78.52873229980474, 18.382900238037166], [78.5456771850586, 18.335470199585075], [78.53665924072266, 18.299810409546012], [78.5171661376956, 18.282070159912053], [78.55468750000006, 18.251260757446403], [78.5629425048831, 18.185089111328068], [78.49865722656278, 18.16848945617687], [78.48398590087919, 18.154420852661076], [78.49215698242199, 18.136369705200195], [78.4850463867188, 18.129680633544865], [78.45066833496111, 18.129760742187443], [78.43618011474626, 18.163469314575252], [78.4093627929688, 18.129560470581055], [78.38336181640625, 18.121620178222656], [78.35476684570318, 18.169380187988338], [78.3215408325197, 18.19729042053234], [78.26790618896479, 18.141429901123104], [78.21315002441435, 18.17596817016613], [78.20771789550787, 18.216159820556697], [78.19818878173834, 18.216640472412053], [78.1679229736331, 18.176229476928825], [78.17230987548857, 18.111850738525618], [78.13617706298834, 18.073749542236442], [78.11264801025385, 18.07657051086437], [78.10881042480497, 18.095251083374023], [78.0896072387697, 18.073881149291992], [78.07406616210949, 18.076721191406364], [78.01793670654303, 18.094238281250114], [77.9993972778322, 18.111219406127873], [77.93756866455078, 18.110059738159293], [77.92408160759878, 18.103278232785748]]]]}}, {"type": "Feature", "properties": {"district": "Rangareddy", "state": "Telangana", "title": "Rangareddy District, Telangana"}, "geometry": {"type": "Polygon", "coordinates": [[[78.45922088623047, 17.69767951965332], [78.49610900878912, 17.680120468139762], [78.52095794677746, 17.69579124450678], [78.55385589599626, 17.683000564575252], [78.593070983887, 17.696870803833008], [78.61943817138672, 17.663610458374023], [78.66908264160156, 17.691240310669002], [78.71399688720732, 17.662620544433707], [78.68165588378923, 17.573770523071403], [78.70722961425781, 17.520069122314567], [78.70509338378923, 17.48425102233898], [78.72062683105474, 17.47302818298334], [78.70709991455084, 17.43470191955572], [78.75411224365251, 17.43959045410162], [78.73429107666033, 17.35481071472168], [78.76367187500017, 17.343891143798828], [78.74059295654314, 17.32108116149908], [78.76317596435553, 17.30652046203636], [78.74096679687517, 17.292079925537166], [78.7565231323245, 17.25956153869629], [78.820541381836, 17.231479644775504], [78.8074417114259, 17.204080581665096], [78.76287078857422, 17.214340209961165], [78.78465270996111, 17.188381195068473], [78.77953338623053, 17.14657020568842], [78.83271789550798, 17.119882583618107], [78.83497619628906, 17.10540008544922], [78.8193664550783, 17.108720779419173], [78.8179931640625, 17.101030349731445], [78.8489608764649, 17.07396125793457], [78.83180236816412, 17.037401199340877], [78.79264831542986, 17.043170928955135], [78.78192901611322, 17.03335952758789], [78.81344604492205, 17.027019500732536], [78.82398223876959, 17.012550354004134], [78.78318023681646, 16.96807098388672], [78.71127319335943, 16.963239669799805], [78.70043945312511, 16.95728111267084], [78.69513702392607, 16.927761077881087], [78.68058776855474, 16.925519943237532], [78.64350891113298, 16.95030975341797], [78.57882690429705, 16.94679832458496], [78.55587005615263, 16.97573089599632], [78.51629638671892, 16.987279891967773], [78.5046157836914, 17.008441925049055], [78.45482635498041, 16.97697067260765], [78.44709777832037, 16.995220184326172], [78.38320922851568, 17.03022003173828], [78.36010742187506, 17.06484985351574], [78.3446121215822, 17.070142745971793], [78.36135101318388, 17.080688476562614], [78.30422973632818, 17.14191246032709], [78.29316711425787, 17.208009719848633], [78.276870727539, 17.224002838134822], [78.256576538086, 17.20176124572754], [78.22126770019537, 17.20191955566412], [78.20841217041016, 17.181480407714844], [78.16800689697283, 17.16686058044445], [78.16646575927751, 17.151830673217717], [78.18766784667969, 17.141841888427848], [78.17456817626959, 17.129190444946403], [78.17733001709001, 17.0956707000733], [78.12684631347662, 17.108221054077205], [78.09713745117199, 17.097249984741325], [78.08017730712919, 17.12127113342285], [78.09326934814459, 17.147172927856445], [78.08036041259777, 17.191129684448242], [78.05027770996088, 17.191949844360465], [78.02279663085966, 17.16887283325201], [77.98752593994135, 17.122922897338924], [77.98549652099615, 17.099090576171875], [77.9309158325197, 17.081811904907283], [77.94554901123075, 17.069791793823356], [77.91796112060564, 17.058378219604492], [77.93535614013678, 17.01951980590826], [77.99188995361357, 16.985210418701286], [77.99783325195312, 16.97383117675804], [77.98345184326178, 16.955730438232422], [78.00894927978516, 16.945840835571516], [78.00942230224638, 16.901649475097656], [77.96462249755888, 16.884969711303825], [77.96388244628906, 16.86487960815441], [77.98551940917974, 16.869279861450195], [77.97251129150408, 16.84551048278803], [77.95072937011719, 16.863220214843807], [77.91890716552751, 16.843160629272575], [77.90474700927729, 16.85701942443859], [77.86089324951172, 16.849069595336914], [77.86193084716803, 16.857810974121094], [77.85357666015636, 16.85024261474615], [77.81656646728527, 16.860849380493107], [77.80927276611334, 16.88538932800293], [77.79057312011724, 16.87055015563965], [77.73326873779291, 16.87677192687994], [77.73986053466803, 16.90875244140625], [77.72614288330084, 16.93905830383295], [77.75358581542974, 16.965681076049805], [77.75837707519537, 17.007259368896484], [77.77366638183622, 17.014249801635856], [77.7835083007813, 17.039051055908146], [77.77037811279303, 17.054729461669922], [77.75025177001947, 17.05810928344738], [77.76447296142584, 17.10324287414562], [77.77504730224604, 17.107389450073185], [77.76621246337902, 17.125389099121094], [77.783447265625, 17.149890899658203], [77.7831115722658, 17.170141220092717], [77.7621688842774, 17.198539733886776], [77.7886581420899, 17.22705078125], [77.77085876464844, 17.233221054077262], [77.7522583007813, 17.217929840088004], [77.73439025878935, 17.22661972045904], [77.73705291748075, 17.176980972290096], [77.71478271484375, 17.204750061035156], [77.6925659179688, 17.19464111328125], [77.69983673095714, 17.170419692993107], [77.64505767822271, 17.17851066589367], [77.61324310302746, 17.163619995117244], [77.61900329589872, 17.149499893188477], [77.58513641357422, 17.14698028564453], [77.5760116577149, 17.126659393310547], [77.54801177978527, 17.136760711669922], [77.53547668457026, 17.162790298461857], [77.4752197265625, 17.171300888061523], [77.47268676757841, 17.139408111572266], [77.48168945312494, 17.130451202392578], [77.46263885498047, 17.104070663452205], [77.3763275146485, 17.137889862060547], [77.35999298095732, 17.16162109375], [77.3707504272461, 17.19007110595703], [77.39148712158203, 17.19236946105957], [77.39881134033209, 17.208778381347656], [77.38035583496105, 17.219770431518555], [77.40545654296892, 17.23740959167492], [77.41493988037104, 17.22987937927246], [77.42257690429688, 17.25325012207054], [77.45450592041021, 17.27589035034191], [77.45279693603521, 17.286630630493164], [77.43402099609375, 17.288259506225586], [77.45510101318365, 17.337909698486442], [77.45159912109392, 17.37049102783203], [77.47931671142584, 17.36961174011242], [77.472412109375, 17.363178253173828], [77.48261260986357, 17.3544597625733], [77.52081298828125, 17.362051010131836], [77.5301818847658, 17.377880096435604], [77.52133178710966, 17.386331558227482], [77.53550720214861, 17.40410041809082], [77.51068878173822, 17.412540435791016], [77.51014709472673, 17.42725944519043], [77.53347015380865, 17.440950393676758], [77.57256317138678, 17.42951965332037], [77.57319641113293, 17.454200744628906], [77.61061096191435, 17.444232940673828], [77.6109466552735, 17.469940185546932], [77.64042663574236, 17.476011276245174], [77.6527633666995, 17.503250122070312], [77.64808654785162, 17.481178283691634], [77.68401336669933, 17.472850799560547], [77.68631744384794, 17.524299621582088], [77.75705718994152, 17.556222915649528], [77.76989746093744, 17.59901046752941], [77.76380157470703, 17.609598159790266], [77.74568939208984, 17.609371185302734], [77.74340057373047, 17.621789932251033], [77.77330017089872, 17.623582839965934], [77.77979278564482, 17.63605117797846], [77.79361724853521, 17.621919631958008], [77.81165313720732, 17.623231887817326], [77.8235931396485, 17.643100738525334], [77.85143280029303, 17.640270233154297], [77.86972808837896, 17.577770233154354], [77.91825103759794, 17.570779800414982], [77.93369293212919, 17.535600662231502], [77.95880889892584, 17.531692504882812], [77.97013092041044, 17.515300750732536], [77.96048736572283, 17.480319976806868], [77.9778900146485, 17.48242950439453], [77.98690795898466, 17.503810882568416], [78.01458740234403, 17.4719295501709], [78.0494003295899, 17.456190109253043], [78.05549621582037, 17.467800140380973], [78.04669952392595, 17.47231101989746], [78.05982208251953, 17.485530853271598], [78.05412292480486, 17.505310058593693], [78.0768661499024, 17.52086067199707], [78.080307006836, 17.4935302734375], [78.10555267334013, 17.479160308837947], [78.13774108886724, 17.483472824096793], [78.15278625488287, 17.46096038818382], [78.18905639648443, 17.47599983215332], [78.18332672119146, 17.486360549926815], [78.2086257934572, 17.48266983032238], [78.21334075927763, 17.435979843139762], [78.25759124755888, 17.415050506591797], [78.29765319824213, 17.45170974731468], [78.29155731201166, 17.487670898437727], [78.33014678955078, 17.500780105590763], [78.34902191162126, 17.51966094970703], [78.34345245361328, 17.53988075256342], [78.37023925781256, 17.599889755249023], [78.35495758056646, 17.619630813598633], [78.37654113769537, 17.629150390625], [78.38175201416044, 17.661487579345703], [78.41471099853527, 17.66588973999029], [78.42472076416033, 17.697250366210938], [78.44525909423857, 17.708641052246094], [78.45922088623047, 17.69767951965332]], [[78.44798278808611, 17.43153953552269], [78.44396209716797, 17.397119522094954], [78.40582275390625, 17.429189682006836], [78.38687133789074, 17.408149719238338], [78.38553619384777, 17.384510040283203], [78.39552307128906, 17.35243988037132], [78.44438934326189, 17.341558456421012], [78.44457244873064, 17.319690704345703], [78.4703979492188, 17.297071456909407], [78.50942230224626, 17.325300216675032], [78.53431701660185, 17.458469390869084], [78.51004028320318, 17.448480606079215], [78.4854583740235, 17.471788406372013], [78.47299957275408, 17.46898078918457], [78.44798278808611, 17.43153953552269]]]}}, {"type": "Feature", "properties": {"district": "Warangal", "state": "Telangana", "title": "Warangal District, Telangana"}, "geometry": {"type": "Polygon", "coordinates": [[[80.38156127929693, 18.593599319458235], [80.39494323730497, 18.566890716552734], [80.3692169189456, 18.5286026000976], [80.37355041503912, 18.4685897827149], [80.38832855224626, 18.455978393554688], [80.43351745605469, 18.455329895019645], [80.4577178955081, 18.4422283172608], [80.45025634765653, 18.399370193481445], [80.46790313720703, 18.38021278381359], [80.45984649658203, 18.349809646606502], [80.46998596191423, 18.29519081115717], [80.49681091308622, 18.26078033447277], [80.53044128417986, 18.255590438842887], [80.6585159301759, 18.16508293151861], [80.64256286621094, 18.148660659790153], [80.6486129760745, 18.128099441528263], [80.62045288085955, 18.1290607452392], [80.61898803710943, 18.121210098266715], [80.63656616210943, 18.119230270385685], [80.63125610351591, 18.104801177978572], [80.61019134521484, 18.106599807739258], [80.5904159545899, 18.076362609863224], [80.55782318115263, 18.09680938720703], [80.52979278564482, 18.093151092529524], [80.49249267578142, 18.133390426635742], [80.46037292480497, 18.12894058227539], [80.47226715087908, 18.116210937500114], [80.44933319091791, 18.073120117187443], [80.45221710205078, 18.054229736328068], [80.42777252197294, 18.053159713745174], [80.38748168945324, 18.076169967651367], [80.3412170410158, 18.030828475952376], [80.33764648437506, 18.011432647705078], [80.30208587646479, 17.967571258544922], [80.26969146728533, 17.96231269836437], [80.2651977539063, 17.927650451660156], [80.27593994140653, 17.90319061279297], [80.26983642578153, 17.865209579467773], [80.24611663818365, 17.821790695190657], [80.25451660156256, 17.76249122619629], [80.24394226074236, 17.733190536498967], [80.23097991943376, 17.745941162109432], [80.16529846191435, 17.705932617187614], [80.15644836425787, 17.747030258178768], [80.1180419921875, 17.723342895507812], [80.03866577148466, 17.700902938842887], [80.03678894042969, 17.691160202026424], [80.06774902343756, 17.67568016052269], [80.08233642578153, 17.65340042114252], [80.06807708740234, 17.64591026306158], [80.04637145996111, 17.589900970458928], [80.07936859130876, 17.569351196289176], [80.07219696044933, 17.54943084716797], [80.08215332031278, 17.507392883300724], [80.12010192871122, 17.475660324096793], [80.1207580566408, 17.44008064270031], [80.1614379882813, 17.4484100341798], [80.15406799316435, 17.37178993225109], [80.1285400390625, 17.385509490966854], [80.10337829589861, 17.357540130615348], [80.07270050048828, 17.360889434814453], [80.04651641845703, 17.340629577636776], [79.99205780029303, 17.35646820068365], [79.97881317138672, 17.394309997558594], [79.96190643310553, 17.398279190063533], [79.93238830566418, 17.388210296630916], [79.92365264892607, 17.36882972717285], [79.88857269287104, 17.365640640259016], [79.88395690917997, 17.348489761352596], [79.87165069580095, 17.35301017761242], [79.86441802978516, 17.327062606811637], [79.81157684326189, 17.330371856689453], [79.78511047363287, 17.313539505004883], [79.75965118408203, 17.368991851806754], [79.77937316894537, 17.38150024414074], [79.75521087646513, 17.402040481567383], [79.75094604492193, 17.42480087280279], [79.71379089355474, 17.426851272583065], [79.69644927978527, 17.446950912475586], [79.64704132080084, 17.46580123901373], [79.64707946777372, 17.49870109558111], [79.6218032836914, 17.485870361328125], [79.57905578613298, 17.491350173950252], [79.55211639404291, 17.49616813659668], [79.53116607666033, 17.518320083618107], [79.51136779785156, 17.4896297454834], [79.46109771728544, 17.5102596282959], [79.41458892822294, 17.51029014587408], [79.38999176025385, 17.494911193847884], [79.31140136718778, 17.52407073974615], [79.30603790283232, 17.544771194458065], [79.28164672851591, 17.552328109741325], [79.26819610595709, 17.57357978820812], [79.25036621093778, 17.556491851806754], [79.21967315673822, 17.55882072448742], [79.20037841796903, 17.619670867919922], [79.15490722656256, 17.57368850708002], [79.14140319824224, 17.587961196899414], [79.14536285400396, 17.615261077880803], [79.13181304931646, 17.624370574951286], [79.11754608154303, 17.662860870361555], [79.09001159667986, 17.674011230468977], [79.06820678710966, 17.707590103149414], [79.0454788208009, 17.717990875244197], [79.0182418823245, 17.704561233520565], [78.98227691650396, 17.784189224243278], [78.8633575439456, 17.804990768432674], [78.86612701416021, 17.862510681152457], [78.82419586181646, 17.869951248169173], [78.82657623291016, 17.889591217041016], [78.84571838378912, 17.901020050048828], [78.87477874755888, 17.959390640258846], [78.90170288085966, 17.955579757690373], [78.92359924316418, 17.989498138427734], [78.94422149658232, 17.990510940551815], [78.96140289306669, 18.030580520629996], [78.9937362670899, 17.99567985534668], [79.0442733764649, 18.029430389404354], [79.14235687255865, 17.99966049194336], [79.14444732666021, 17.981708526611328], [79.18673706054688, 17.990320205688533], [79.24809265136713, 17.974952697753906], [79.25051879882824, 17.996030807495117], [79.28492736816423, 18.012920379638786], [79.37177276611334, 18.016809463501204], [79.4544982910158, 18.07368278503418], [79.47175598144537, 18.110082626342717], [79.50625610351568, 18.09675025939947], [79.55655670166033, 18.101039886474723], [79.57000732421903, 18.121419906616268], [79.5870361328125, 18.11951065063488], [79.57993316650419, 18.140270233154524], [79.60279083251959, 18.140211105346623], [79.61660766601562, 18.177860260009822], [79.56569671630876, 18.295991897583008], [79.57985687255865, 18.347299575805664], [79.572982788086, 18.421421051025447], [79.58899688720703, 18.443229675293026], [79.59028625488281, 18.46635246276867], [79.6509170532226, 18.468601226806584], [79.67855834960966, 18.4925594329834], [79.71340179443365, 18.491069793701286], [79.74532318115263, 18.47711944580078], [79.78502655029297, 18.4266109466555], [79.81564331054693, 18.41302108764671], [79.82028961181635, 18.43134117126465], [79.80548858642584, 18.484750747680778], [79.8260269165039, 18.4962997436524], [79.8499374389649, 18.480680465698185], [79.87386322021513, 18.44016075134283], [79.91564941406278, 18.41975021362316], [79.91842651367193, 18.454830169677848], [79.90016174316418, 18.4655704498291], [79.87867736816406, 18.50629997253418], [79.9476165771485, 18.50451087951666], [79.96298217773438, 18.472780227661133], [79.98574066162115, 18.485919952392692], [80.01779937744146, 18.464241027832088], [80.033500671387, 18.511711120605526], [80.07882690429693, 18.513580322265625], [80.0454711914063, 18.477401733398494], [80.11167907714855, 18.461950302124137], [80.10925292968744, 18.45236015319847], [80.0977172851563, 18.452890396118278], [80.071830749512, 18.42320060729986], [80.03246307373053, 18.42645072937023], [80.02326202392595, 18.438039779663143], [80.02365875244158, 18.39614105224632], [80.05249023437506, 18.39612960815424], [80.06941223144531, 18.382299423217773], [80.07650756835955, 18.417690277099553], [80.09123992919928, 18.42687034606945], [80.13611602783232, 18.413299560547102], [80.14562225341803, 18.40859031677246], [80.13986206054693, 18.368392944335938], [80.16774749755865, 18.336370468139705], [80.21144104003918, 18.385250091552678], [80.22202301025408, 18.547910690307845], [80.26412200927763, 18.584239959716797], [80.34184265136724, 18.586441040039062], [80.36695098876953, 18.604650497436467], [80.38156127929693, 18.593599319458235]]]}}]}